{
  "type": "FeatureCollection",
  "features": [
    {
      "type": "Feature",
      "properties": {
        "css": [
          "ward",
          "division-16"
        ],
        "name": "群贤",
        "description": "群贤 | 南区 | 16分 | 16分：东西南北四门 + 对称十字街",
        "_elementType": "rect"
      },
      "geometry": {
        "type": "Polygon",
        "coordinates": [
          [
            [
              108.883727,
              34.252617
            ],
            [
              108.895711,
              34.252617
            ],
            [
              108.895711,
              34.248024
            ],
            [
              108.883727,
              34.248024
            ],
            [
              108.883727,
              34.252617
            ]
          ]
        ]
      }
    },
    {
      "type": "Feature",
      "properties": {
        "css": [
          "ward",
          "division-16"
        ],
        "name": "延寿",
        "description": "延寿 | 南区 | 16分 | 16分：东西南北四门 + 对称十字街",
        "_elementType": "rect"
      },
      "geometry": {
        "type": "Polygon",
        "coordinates": [
          [
            [
              108.908245,
              34.252617
            ],
            [
              108.919238,
              34.252617
            ],
            [
              108.919238,
              34.248024
            ],
            [
              108.908245,
              34.248024
            ],
            [
              108.908245,
              34.252617
            ]
          ]
        ]
      }
    },
    {
      "type": "Feature",
      "properties": {
        "css": [
          "ward",
          "division-12"
        ],
        "name": "太平",
        "description": "太平 | 南区 | 12分 | 12分：东西二门 + 一条东西横街",
        "_elementType": "rect"
      },
      "geometry": {
        "type": "Polygon",
        "coordinates": [
          [
            [
              108.920402,
              34.252617
            ],
            [
              108.927762,
              34.252617
            ],
            [
              108.927762,
              34.248024
            ],
            [
              108.920402,
              34.248024
            ],
            [
              108.920402,
              34.252617
            ]
          ]
        ]
      }
    },
    {
      "type": "Feature",
      "properties": {
        "css": [
          "ward",
          "division-12"
        ],
        "name": "善和",
        "description": "善和 | 南区 | 12分 | 12分：东西二门 + 一条东西横街",
        "_elementType": "rect"
      },
      "geometry": {
        "type": "Polygon",
        "coordinates": [
          [
            [
              108.928441,
              34.252617
            ],
            [
              108.934455,
              34.252617
            ],
            [
              108.934455,
              34.248024
            ],
            [
              108.928441,
              34.248024
            ],
            [
              108.928441,
              34.252617
            ]
          ]
        ]
      }
    },
    {
      "type": "Feature",
      "properties": {
        "css": [
          "ward",
          "division-12"
        ],
        "name": "兴道",
        "description": "兴道 | 南区 | 12分 | 12分：东西二门 + 一条东西横街",
        "_elementType": "rect"
      },
      "geometry": {
        "type": "Polygon",
        "coordinates": [
          [
            [
              108.936125,
              34.252617
            ],
            [
              108.942182,
              34.252617
            ],
            [
              108.942182,
              34.248024
            ],
            [
              108.936125,
              34.248024
            ],
            [
              108.936125,
              34.252617
            ]
          ]
        ]
      }
    },
    {
      "type": "Feature",
      "properties": {
        "css": [
          "ward",
          "division-12"
        ],
        "name": "务本",
        "description": "务本 | 南区 | 12分 | 12分：东西二门 + 一条东西横街",
        "_elementType": "rect"
      },
      "geometry": {
        "type": "Polygon",
        "coordinates": [
          [
            [
              108.942904,
              34.252617
            ],
            [
              108.950448,
              34.252617
            ],
            [
              108.950448,
              34.248024
            ],
            [
              108.942904,
              34.248024
            ],
            [
              108.942904,
              34.252617
            ]
          ]
        ]
      }
    },
    {
      "type": "Feature",
      "properties": {
        "css": [
          "ward",
          "division-16"
        ],
        "name": "平康",
        "description": "平康 | 南区 | 16分 | 16分：东西南北四门 + 对称十字街",
        "_elementType": "rect"
      },
      "geometry": {
        "type": "Polygon",
        "coordinates": [
          [
            [
              108.951892,
              34.252617
            ],
            [
              108.962907,
              34.252617
            ],
            [
              108.962907,
              34.248024
            ],
            [
              108.951892,
              34.248024
            ],
            [
              108.951892,
              34.252617
            ]
          ]
        ]
      }
    },
    {
      "type": "Feature",
      "properties": {
        "css": [
          "ward",
          "division-16"
        ],
        "name": "道政",
        "description": "道政 | 南区 | 16分 | 16分：东西南北四门 + 对称十字街",
        "_elementType": "rect"
      },
      "geometry": {
        "type": "Polygon",
        "coordinates": [
          [
            [
              108.975796,
              34.252617
            ],
            [
              108.987813,
              34.252617
            ],
            [
              108.987813,
              34.248024
            ],
            [
              108.975796,
              34.248024
            ],
            [
              108.975796,
              34.252617
            ]
          ]
        ]
      }
    },
    {
      "type": "Feature",
      "properties": {
        "css": [
          "ward",
          "division-16"
        ],
        "name": "怀德",
        "description": "怀德 | 南区 | 16分 | 16分：东西南北四门 + 对称十字街",
        "_elementType": "rect"
      },
      "geometry": {
        "type": "Polygon",
        "coordinates": [
          [
            [
              108.883727,
              34.247635
            ],
            [
              108.895711,
              34.247635
            ],
            [
              108.895711,
              34.242953
            ],
            [
              108.883727,
              34.242953
            ],
            [
              108.883727,
              34.247635
            ]
          ]
        ]
      }
    },
    {
      "type": "Feature",
      "properties": {
        "css": [
          "ward",
          "division-16"
        ],
        "name": "光德",
        "description": "光德 | 南区 | 16分 | 16分：东西南北四门 + 对称十字街",
        "_elementType": "rect"
      },
      "geometry": {
        "type": "Polygon",
        "coordinates": [
          [
            [
              108.908245,
              34.247635
            ],
            [
              108.919238,
              34.247635
            ],
            [
              108.919238,
              34.242953
            ],
            [
              108.908245,
              34.242953
            ],
            [
              108.908245,
              34.247635
            ]
          ]
        ]
      }
    },
    {
      "type": "Feature",
      "properties": {
        "css": [
          "ward",
          "division-12"
        ],
        "name": "通义",
        "description": "通义 | 南区 | 12分 | 12分：东西二门 + 一条东西横街",
        "_elementType": "rect"
      },
      "geometry": {
        "type": "Polygon",
        "coordinates": [
          [
            [
              108.920402,
              34.247635
            ],
            [
              108.927762,
              34.247635
            ],
            [
              108.927762,
              34.242953
            ],
            [
              108.920402,
              34.242953
            ],
            [
              108.920402,
              34.247635
            ]
          ]
        ]
      }
    },
    {
      "type": "Feature",
      "properties": {
        "css": [
          "ward",
          "division-12"
        ],
        "name": "通化",
        "description": "通化 | 南区 | 12分 | 12分：东西二门 + 一条东西横街",
        "_elementType": "rect"
      },
      "geometry": {
        "type": "Polygon",
        "coordinates": [
          [
            [
              108.928441,
              34.247635
            ],
            [
              108.934455,
              34.247635
            ],
            [
              108.934455,
              34.242953
            ],
            [
              108.928441,
              34.242953
            ],
            [
              108.928441,
              34.247635
            ]
          ]
        ]
      }
    },
    {
      "type": "Feature",
      "properties": {
        "css": [
          "ward",
          "division-12"
        ],
        "name": "开化",
        "description": "开化 | 南区 | 12分 | 12分：东西二门 + 一条东西横街",
        "_elementType": "rect"
      },
      "geometry": {
        "type": "Polygon",
        "coordinates": [
          [
            [
              108.936125,
              34.247635
            ],
            [
              108.942182,
              34.247635
            ],
            [
              108.942182,
              34.242953
            ],
            [
              108.936125,
              34.242953
            ],
            [
              108.936125,
              34.247635
            ]
          ]
        ]
      }
    },
    {
      "type": "Feature",
      "properties": {
        "css": [
          "ward",
          "division-12"
        ],
        "name": "崇义",
        "description": "崇义 | 南区 | 12分 | 12分：东西二门 + 一条东西横街",
        "_elementType": "rect"
      },
      "geometry": {
        "type": "Polygon",
        "coordinates": [
          [
            [
              108.942904,
              34.247635
            ],
            [
              108.950448,
              34.247635
            ],
            [
              108.950448,
              34.242953
            ],
            [
              108.942904,
              34.242953
            ],
            [
              108.942904,
              34.247635
            ]
          ]
        ]
      }
    },
    {
      "type": "Feature",
      "properties": {
        "css": [
          "ward",
          "division-16"
        ],
        "name": "宣阳",
        "description": "宣阳 | 南区 | 16分 | 16分：东西南北四门 + 对称十字街",
        "_elementType": "rect"
      },
      "geometry": {
        "type": "Polygon",
        "coordinates": [
          [
            [
              108.951892,
              34.247635
            ],
            [
              108.962907,
              34.247635
            ],
            [
              108.962907,
              34.242953
            ],
            [
              108.951892,
              34.242953
            ],
            [
              108.951892,
              34.247635
            ]
          ]
        ]
      }
    },
    {
      "type": "Feature",
      "properties": {
        "css": [
          "ward",
          "division-16"
        ],
        "name": "常乐",
        "description": "常乐 | 南区 | 16分 | 16分：东西南北四门 + 对称十字街",
        "_elementType": "rect"
      },
      "geometry": {
        "type": "Polygon",
        "coordinates": [
          [
            [
              108.975796,
              34.247635
            ],
            [
              108.987813,
              34.247635
            ],
            [
              108.987813,
              34.242953
            ],
            [
              108.975796,
              34.242953
            ],
            [
              108.975796,
              34.247635
            ]
          ]
        ]
      }
    },
    {
      "type": "Feature",
      "properties": {
        "css": [
          "ward",
          "division-16"
        ],
        "name": "崇化",
        "description": "崇化 | 南区 | 16分 | 16分：东西南北四门 + 对称十字街",
        "_elementType": "rect"
      },
      "geometry": {
        "type": "Polygon",
        "coordinates": [
          [
            [
              108.883727,
              34.242599
            ],
            [
              108.895711,
              34.242599
            ],
            [
              108.895711,
              34.237829
            ],
            [
              108.883727,
              34.237829
            ],
            [
              108.883727,
              34.242599
            ]
          ]
        ]
      }
    },
    {
      "type": "Feature",
      "properties": {
        "css": [
          "ward",
          "division-16"
        ],
        "name": "怀远",
        "description": "怀远 | 南区 | 16分 | 16分：东西南北四门 + 对称十字街",
        "_elementType": "rect"
      },
      "geometry": {
        "type": "Polygon",
        "coordinates": [
          [
            [
              108.896164,
              34.242599
            ],
            [
              108.907566,
              34.242599
            ],
            [
              108.907566,
              34.237829
            ],
            [
              108.896164,
              34.237829
            ],
            [
              108.896164,
              34.242599
            ]
          ]
        ]
      }
    },
    {
      "type": "Feature",
      "properties": {
        "css": [
          "ward",
          "division-16"
        ],
        "name": "延康",
        "description": "延康 | 南区 | 16分 | 16分：东西南北四门 + 对称十字街",
        "_elementType": "rect"
      },
      "geometry": {
        "type": "Polygon",
        "coordinates": [
          [
            [
              108.908245,
              34.242599
            ],
            [
              108.919238,
              34.242599
            ],
            [
              108.919238,
              34.237829
            ],
            [
              108.908245,
              34.237829
            ],
            [
              108.908245,
              34.242599
            ]
          ]
        ]
      }
    },
    {
      "type": "Feature",
      "properties": {
        "css": [
          "ward",
          "division-12"
        ],
        "name": "兴化",
        "description": "兴化 | 南区 | 12分 | 12分：东西二门 + 一条东西横街",
        "_elementType": "rect"
      },
      "geometry": {
        "type": "Polygon",
        "coordinates": [
          [
            [
              108.920402,
              34.242599
            ],
            [
              108.927762,
              34.242599
            ],
            [
              108.927762,
              34.237829
            ],
            [
              108.920402,
              34.237829
            ],
            [
              108.920402,
              34.242599
            ]
          ]
        ]
      }
    },
    {
      "type": "Feature",
      "properties": {
        "css": [
          "ward",
          "division-12"
        ],
        "name": "丰乐",
        "description": "丰乐 | 南区 | 12分 | 12分：东西二门 + 一条东西横街",
        "_elementType": "rect"
      },
      "geometry": {
        "type": "Polygon",
        "coordinates": [
          [
            [
              108.928441,
              34.242599
            ],
            [
              108.934455,
              34.242599
            ],
            [
              108.934455,
              34.237829
            ],
            [
              108.928441,
              34.237829
            ],
            [
              108.928441,
              34.242599
            ]
          ]
        ]
      }
    },
    {
      "type": "Feature",
      "properties": {
        "css": [
          "ward",
          "division-12"
        ],
        "name": "安仁",
        "description": "安仁 | 南区 | 12分 | 12分：东西二门 + 一条东西横街",
        "_elementType": "rect"
      },
      "geometry": {
        "type": "Polygon",
        "coordinates": [
          [
            [
              108.936125,
              34.242599
            ],
            [
              108.942182,
              34.242599
            ],
            [
              108.942182,
              34.237829
            ],
            [
              108.936125,
              34.237829
            ],
            [
              108.936125,
              34.242599
            ]
          ]
        ]
      }
    },
    {
      "type": "Feature",
      "properties": {
        "css": [
          "ward",
          "division-12"
        ],
        "name": "长兴",
        "description": "长兴 | 南区 | 12分 | 12分：东西二门 + 一条东西横街",
        "_elementType": "rect"
      },
      "geometry": {
        "type": "Polygon",
        "coordinates": [
          [
            [
              108.942904,
              34.242599
            ],
            [
              108.950448,
              34.242599
            ],
            [
              108.950448,
              34.237829
            ],
            [
              108.942904,
              34.237829
            ],
            [
              108.942904,
              34.242599
            ]
          ]
        ]
      }
    },
    {
      "type": "Feature",
      "properties": {
        "css": [
          "ward",
          "division-16"
        ],
        "name": "亲仁",
        "description": "亲仁 | 南区 | 16分 | 16分：东西南北四门 + 对称十字街",
        "_elementType": "rect"
      },
      "geometry": {
        "type": "Polygon",
        "coordinates": [
          [
            [
              108.951892,
              34.242599
            ],
            [
              108.962907,
              34.242599
            ],
            [
              108.962907,
              34.237829
            ],
            [
              108.951892,
              34.237829
            ],
            [
              108.951892,
              34.242599
            ]
          ]
        ]
      }
    },
    {
      "type": "Feature",
      "properties": {
        "css": [
          "ward",
          "division-16"
        ],
        "name": "安邑",
        "description": "安邑 | 南区 | 16分 | 16分：东西南北四门 + 对称十字街",
        "_elementType": "rect"
      },
      "geometry": {
        "type": "Polygon",
        "coordinates": [
          [
            [
              108.963639,
              34.242599
            ],
            [
              108.975063,
              34.242599
            ],
            [
              108.975063,
              34.237829
            ],
            [
              108.963639,
              34.237829
            ],
            [
              108.963639,
              34.242599
            ]
          ]
        ]
      }
    },
    {
      "type": "Feature",
      "properties": {
        "css": [
          "ward",
          "division-16"
        ],
        "name": "靖恭",
        "description": "靖恭 | 南区 | 16分 | 16分：东西南北四门 + 对称十字街",
        "_elementType": "rect"
      },
      "geometry": {
        "type": "Polygon",
        "coordinates": [
          [
            [
              108.975796,
              34.242599
            ],
            [
              108.987813,
              34.242599
            ],
            [
              108.987813,
              34.237829
            ],
            [
              108.975796,
              34.237829
            ],
            [
              108.975796,
              34.242599
            ]
          ]
        ]
      }
    },
    {
      "type": "Feature",
      "properties": {
        "css": [
          "ward",
          "division-16"
        ],
        "name": "丰邑",
        "description": "丰邑 | 南区 | 16分 | 16分：东西南北四门 + 对称十字街",
        "_elementType": "rect"
      },
      "geometry": {
        "type": "Polygon",
        "coordinates": [
          [
            [
              108.883727,
              34.237432
            ],
            [
              108.895711,
              34.237432
            ],
            [
              108.895711,
              34.232573
            ],
            [
              108.883727,
              34.232573
            ],
            [
              108.883727,
              34.237432
            ]
          ]
        ]
      }
    },
    {
      "type": "Feature",
      "properties": {
        "css": [
          "ward",
          "division-16"
        ],
        "name": "长寿",
        "description": "长寿 | 南区 | 16分 | 16分：东西南北四门 + 对称十字街",
        "_elementType": "rect"
      },
      "geometry": {
        "type": "Polygon",
        "coordinates": [
          [
            [
              108.896164,
              34.237432
            ],
            [
              108.907566,
              34.237432
            ],
            [
              108.907566,
              34.232573
            ],
            [
              108.896164,
              34.232573
            ],
            [
              108.896164,
              34.237432
            ]
          ]
        ]
      }
    },
    {
      "type": "Feature",
      "properties": {
        "css": [
          "ward",
          "division-16"
        ],
        "name": "崇贤",
        "description": "崇贤 | 南区 | 16分 | 16分：东西南北四门 + 对称十字街",
        "_elementType": "rect"
      },
      "geometry": {
        "type": "Polygon",
        "coordinates": [
          [
            [
              108.908245,
              34.237432
            ],
            [
              108.919238,
              34.237432
            ],
            [
              108.919238,
              34.232573
            ],
            [
              108.908245,
              34.232573
            ],
            [
              108.908245,
              34.237432
            ]
          ]
        ]
      }
    },
    {
      "type": "Feature",
      "properties": {
        "css": [
          "ward",
          "division-12"
        ],
        "name": "崇德",
        "description": "崇德 | 南区 | 12分 | 12分：东西二门 + 一条东西横街",
        "_elementType": "rect"
      },
      "geometry": {
        "type": "Polygon",
        "coordinates": [
          [
            [
              108.920402,
              34.237432
            ],
            [
              108.927762,
              34.237432
            ],
            [
              108.927762,
              34.232573
            ],
            [
              108.920402,
              34.232573
            ],
            [
              108.920402,
              34.237432
            ]
          ]
        ]
      }
    },
    {
      "type": "Feature",
      "properties": {
        "css": [
          "ward",
          "division-12"
        ],
        "name": "安业",
        "description": "安业 | 南区 | 12分 | 12分：东西二门 + 一条东西横街",
        "_elementType": "rect"
      },
      "geometry": {
        "type": "Polygon",
        "coordinates": [
          [
            [
              108.928441,
              34.237432
            ],
            [
              108.934455,
              34.237432
            ],
            [
              108.934455,
              34.232573
            ],
            [
              108.928441,
              34.232573
            ],
            [
              108.928441,
              34.237432
            ]
          ]
        ]
      }
    },
    {
      "type": "Feature",
      "properties": {
        "css": [
          "ward",
          "division-12"
        ],
        "name": "光福",
        "description": "光福 | 南区 | 12分 | 12分：东西二门 + 一条东西横街",
        "_elementType": "rect"
      },
      "geometry": {
        "type": "Polygon",
        "coordinates": [
          [
            [
              108.936125,
              34.237432
            ],
            [
              108.942182,
              34.237432
            ],
            [
              108.942182,
              34.232573
            ],
            [
              108.936125,
              34.232573
            ],
            [
              108.936125,
              34.237432
            ]
          ]
        ]
      }
    },
    {
      "type": "Feature",
      "properties": {
        "css": [
          "ward",
          "division-12"
        ],
        "name": "永乐",
        "description": "永乐 | 南区 | 12分 | 12分：东西二门 + 一条东西横街",
        "_elementType": "rect"
      },
      "geometry": {
        "type": "Polygon",
        "coordinates": [
          [
            [
              108.942904,
              34.237432
            ],
            [
              108.950448,
              34.237432
            ],
            [
              108.950448,
              34.232573
            ],
            [
              108.942904,
              34.232573
            ],
            [
              108.942904,
              34.237432
            ]
          ]
        ]
      }
    },
    {
      "type": "Feature",
      "properties": {
        "css": [
          "ward",
          "division-16"
        ],
        "name": "永宁",
        "description": "永宁 | 南区 | 16分 | 16分：东西南北四门 + 对称十字街",
        "_elementType": "rect"
      },
      "geometry": {
        "type": "Polygon",
        "coordinates": [
          [
            [
              108.951892,
              34.237432
            ],
            [
              108.962907,
              34.237432
            ],
            [
              108.962907,
              34.232573
            ],
            [
              108.951892,
              34.232573
            ],
            [
              108.951892,
              34.237432
            ]
          ]
        ]
      }
    },
    {
      "type": "Feature",
      "properties": {
        "css": [
          "ward",
          "division-16"
        ],
        "name": "宣平",
        "description": "宣平 | 南区 | 16分 | 16分：东西南北四门 + 对称十字街",
        "_elementType": "rect"
      },
      "geometry": {
        "type": "Polygon",
        "coordinates": [
          [
            [
              108.963639,
              34.237432
            ],
            [
              108.975063,
              34.237432
            ],
            [
              108.975063,
              34.232573
            ],
            [
              108.963639,
              34.232573
            ],
            [
              108.963639,
              34.237432
            ]
          ]
        ]
      }
    },
    {
      "type": "Feature",
      "properties": {
        "css": [
          "ward",
          "division-16"
        ],
        "name": "新昌",
        "description": "新昌 | 南区 | 16分 | 16分：东西南北四门 + 对称十字街",
        "_elementType": "rect"
      },
      "geometry": {
        "type": "Polygon",
        "coordinates": [
          [
            [
              108.975796,
              34.237432
            ],
            [
              108.987813,
              34.237432
            ],
            [
              108.987813,
              34.232573
            ],
            [
              108.975796,
              34.232573
            ],
            [
              108.975796,
              34.237432
            ]
          ]
        ]
      }
    },
    {
      "type": "Feature",
      "properties": {
        "css": [
          "ward",
          "division-16"
        ],
        "name": "待贤",
        "description": "待贤 | 南区 | 16分 | 16分：东西南北四门 + 对称十字街",
        "_elementType": "rect"
      },
      "geometry": {
        "type": "Polygon",
        "coordinates": [
          [
            [
              108.883727,
              34.232087
            ],
            [
              108.895711,
              34.232087
            ],
            [
              108.895711,
              34.227273
            ],
            [
              108.883727,
              34.227273
            ],
            [
              108.883727,
              34.232087
            ]
          ]
        ]
      }
    },
    {
      "type": "Feature",
      "properties": {
        "css": [
          "ward",
          "division-16"
        ],
        "name": "嘉会",
        "description": "嘉会 | 南区 | 16分 | 16分：东西南北四门 + 对称十字街",
        "_elementType": "rect"
      },
      "geometry": {
        "type": "Polygon",
        "coordinates": [
          [
            [
              108.896164,
              34.232087
            ],
            [
              108.907566,
              34.232087
            ],
            [
              108.907566,
              34.227273
            ],
            [
              108.896164,
              34.227273
            ],
            [
              108.896164,
              34.232087
            ]
          ]
        ]
      }
    },
    {
      "type": "Feature",
      "properties": {
        "css": [
          "ward",
          "division-16"
        ],
        "name": "延福",
        "description": "延福 | 南区 | 16分 | 16分：东西南北四门 + 对称十字街",
        "_elementType": "rect"
      },
      "geometry": {
        "type": "Polygon",
        "coordinates": [
          [
            [
              108.908245,
              34.232087
            ],
            [
              108.919238,
              34.232087
            ],
            [
              108.919238,
              34.227273
            ],
            [
              108.908245,
              34.227273
            ],
            [
              108.908245,
              34.232087
            ]
          ]
        ]
      }
    },
    {
      "type": "Feature",
      "properties": {
        "css": [
          "ward",
          "division-12"
        ],
        "name": "怀贞",
        "description": "怀贞 | 南区 | 12分 | 12分：东西二门 + 一条东西横街",
        "_elementType": "rect"
      },
      "geometry": {
        "type": "Polygon",
        "coordinates": [
          [
            [
              108.920402,
              34.232087
            ],
            [
              108.927762,
              34.232087
            ],
            [
              108.927762,
              34.227273
            ],
            [
              108.920402,
              34.227273
            ],
            [
              108.920402,
              34.232087
            ]
          ]
        ]
      }
    },
    {
      "type": "Feature",
      "properties": {
        "css": [
          "ward",
          "division-12"
        ],
        "name": "崇业",
        "description": "崇业 | 南区 | 12分 | 12分：东西二门 + 一条东西横街",
        "_elementType": "rect"
      },
      "geometry": {
        "type": "Polygon",
        "coordinates": [
          [
            [
              108.928441,
              34.232087
            ],
            [
              108.934455,
              34.232087
            ],
            [
              108.934455,
              34.227273
            ],
            [
              108.928441,
              34.227273
            ],
            [
              108.928441,
              34.232087
            ]
          ]
        ]
      }
    },
    {
      "type": "Feature",
      "properties": {
        "css": [
          "ward",
          "division-12"
        ],
        "name": "靖善",
        "description": "靖善 | 南区 | 12分 | 12分：东西二门 + 一条东西横街",
        "_elementType": "rect"
      },
      "geometry": {
        "type": "Polygon",
        "coordinates": [
          [
            [
              108.936125,
              34.232087
            ],
            [
              108.942182,
              34.232087
            ],
            [
              108.942182,
              34.227273
            ],
            [
              108.936125,
              34.227273
            ],
            [
              108.936125,
              34.232087
            ]
          ]
        ]
      }
    },
    {
      "type": "Feature",
      "properties": {
        "css": [
          "ward",
          "division-12"
        ],
        "name": "靖安",
        "description": "靖安 | 南区 | 12分 | 12分：东西二门 + 一条东西横街",
        "_elementType": "rect"
      },
      "geometry": {
        "type": "Polygon",
        "coordinates": [
          [
            [
              108.942904,
              34.232087
            ],
            [
              108.950448,
              34.232087
            ],
            [
              108.950448,
              34.227273
            ],
            [
              108.942904,
              34.227273
            ],
            [
              108.942904,
              34.232087
            ]
          ]
        ]
      }
    },
    {
      "type": "Feature",
      "properties": {
        "css": [
          "ward",
          "division-16"
        ],
        "name": "永崇",
        "description": "永崇 | 南区 | 16分 | 16分：东西南北四门 + 对称十字街",
        "_elementType": "rect"
      },
      "geometry": {
        "type": "Polygon",
        "coordinates": [
          [
            [
              108.951892,
              34.232087
            ],
            [
              108.962907,
              34.232087
            ],
            [
              108.962907,
              34.227273
            ],
            [
              108.951892,
              34.227273
            ],
            [
              108.951892,
              34.232087
            ]
          ]
        ]
      }
    },
    {
      "type": "Feature",
      "properties": {
        "css": [
          "ward",
          "division-16"
        ],
        "name": "昇平",
        "description": "昇平 | 南区 | 16分 | 16分：东西南北四门 + 对称十字街",
        "_elementType": "rect"
      },
      "geometry": {
        "type": "Polygon",
        "coordinates": [
          [
            [
              108.963639,
              34.232087
            ],
            [
              108.975063,
              34.232087
            ],
            [
              108.975063,
              34.227273
            ],
            [
              108.963639,
              34.227273
            ],
            [
              108.963639,
              34.232087
            ]
          ]
        ]
      }
    },
    {
      "type": "Feature",
      "properties": {
        "css": [
          "ward",
          "division-16"
        ],
        "name": "昇道",
        "description": "昇道 | 南区 | 16分 | 16分：东西南北四门 + 对称十字街",
        "_elementType": "rect"
      },
      "geometry": {
        "type": "Polygon",
        "coordinates": [
          [
            [
              108.975796,
              34.232087
            ],
            [
              108.987813,
              34.232087
            ],
            [
              108.987813,
              34.227273
            ],
            [
              108.975796,
              34.227273
            ],
            [
              108.975796,
              34.232087
            ]
          ]
        ]
      }
    },
    {
      "type": "Feature",
      "properties": {
        "css": [
          "ward",
          "division-16"
        ],
        "name": "淳和",
        "description": "淳和 | 南区 | 16分 | 16分：东西南北四门 + 对称十字街",
        "_elementType": "rect"
      },
      "geometry": {
        "type": "Polygon",
        "coordinates": [
          [
            [
              108.883727,
              34.226963
            ],
            [
              108.895711,
              34.226963
            ],
            [
              108.895711,
              34.222193
            ],
            [
              108.883727,
              34.222193
            ],
            [
              108.883727,
              34.226963
            ]
          ]
        ]
      }
    },
    {
      "type": "Feature",
      "properties": {
        "css": [
          "ward",
          "division-16"
        ],
        "name": "永平",
        "description": "永平 | 南区 | 16分 | 16分：东西南北四门 + 对称十字街",
        "_elementType": "rect"
      },
      "geometry": {
        "type": "Polygon",
        "coordinates": [
          [
            [
              108.896164,
              34.226963
            ],
            [
              108.907566,
              34.226963
            ],
            [
              108.907566,
              34.222193
            ],
            [
              108.896164,
              34.222193
            ],
            [
              108.896164,
              34.226963
            ]
          ]
        ]
      }
    },
    {
      "type": "Feature",
      "properties": {
        "css": [
          "ward",
          "division-16"
        ],
        "name": "永安",
        "description": "永安 | 南区 | 16分 | 16分：东西南北四门 + 对称十字街",
        "_elementType": "rect"
      },
      "geometry": {
        "type": "Polygon",
        "coordinates": [
          [
            [
              108.908245,
              34.226963
            ],
            [
              108.919238,
              34.226963
            ],
            [
              108.919238,
              34.222193
            ],
            [
              108.908245,
              34.222193
            ],
            [
              108.908245,
              34.226963
            ]
          ]
        ]
      }
    },
    {
      "type": "Feature",
      "properties": {
        "css": [
          "ward",
          "division-12"
        ],
        "name": "宣义",
        "description": "宣义 | 南区 | 12分 | 12分：东西二门 + 一条东西横街",
        "_elementType": "rect"
      },
      "geometry": {
        "type": "Polygon",
        "coordinates": [
          [
            [
              108.920402,
              34.226963
            ],
            [
              108.927762,
              34.226963
            ],
            [
              108.927762,
              34.222193
            ],
            [
              108.920402,
              34.222193
            ],
            [
              108.920402,
              34.226963
            ]
          ]
        ]
      }
    },
    {
      "type": "Feature",
      "properties": {
        "css": [
          "ward",
          "division-12"
        ],
        "name": "永达",
        "description": "永达 | 南区 | 12分 | 12分：东西二门 + 一条东西横街",
        "_elementType": "rect"
      },
      "geometry": {
        "type": "Polygon",
        "coordinates": [
          [
            [
              108.928441,
              34.226963
            ],
            [
              108.934455,
              34.226963
            ],
            [
              108.934455,
              34.222193
            ],
            [
              108.928441,
              34.222193
            ],
            [
              108.928441,
              34.226963
            ]
          ]
        ]
      }
    },
    {
      "type": "Feature",
      "properties": {
        "css": [
          "ward",
          "division-12"
        ],
        "name": "兰陵",
        "description": "兰陵 | 南区 | 12分 | 12分：东西二门 + 一条东西横街",
        "_elementType": "rect"
      },
      "geometry": {
        "type": "Polygon",
        "coordinates": [
          [
            [
              108.936125,
              34.226963
            ],
            [
              108.942182,
              34.226963
            ],
            [
              108.942182,
              34.222193
            ],
            [
              108.936125,
              34.222193
            ],
            [
              108.936125,
              34.226963
            ]
          ]
        ]
      }
    },
    {
      "type": "Feature",
      "properties": {
        "css": [
          "ward",
          "division-12"
        ],
        "name": "安善",
        "description": "安善 | 南区 | 12分 | 12分：东西二门 + 一条东西横街",
        "_elementType": "rect"
      },
      "geometry": {
        "type": "Polygon",
        "coordinates": [
          [
            [
              108.942904,
              34.226963
            ],
            [
              108.950448,
              34.226963
            ],
            [
              108.950448,
              34.222193
            ],
            [
              108.942904,
              34.222193
            ],
            [
              108.942904,
              34.226963
            ]
          ]
        ]
      }
    },
    {
      "type": "Feature",
      "properties": {
        "css": [
          "ward",
          "division-16"
        ],
        "name": "昭国",
        "description": "昭国 | 南区 | 16分 | 16分：东西南北四门 + 对称十字街",
        "_elementType": "rect"
      },
      "geometry": {
        "type": "Polygon",
        "coordinates": [
          [
            [
              108.951892,
              34.226963
            ],
            [
              108.962907,
              34.226963
            ],
            [
              108.962907,
              34.222193
            ],
            [
              108.951892,
              34.222193
            ],
            [
              108.951892,
              34.226963
            ]
          ]
        ]
      }
    },
    {
      "type": "Feature",
      "properties": {
        "css": [
          "ward",
          "division-16"
        ],
        "name": "修行",
        "description": "修行 | 南区 | 16分 | 16分：东西南北四门 + 对称十字街",
        "_elementType": "rect"
      },
      "geometry": {
        "type": "Polygon",
        "coordinates": [
          [
            [
              108.963639,
              34.226963
            ],
            [
              108.975063,
              34.226963
            ],
            [
              108.975063,
              34.222193
            ],
            [
              108.963639,
              34.222193
            ],
            [
              108.963639,
              34.226963
            ]
          ]
        ]
      }
    },
    {
      "type": "Feature",
      "properties": {
        "css": [
          "ward",
          "division-16"
        ],
        "name": "广德",
        "description": "广德 | 南区 | 16分 | 16分：东西南北四门 + 对称十字街",
        "_elementType": "rect"
      },
      "geometry": {
        "type": "Polygon",
        "coordinates": [
          [
            [
              108.975796,
              34.226963
            ],
            [
              108.987813,
              34.226963
            ],
            [
              108.987813,
              34.222193
            ],
            [
              108.975796,
              34.222193
            ],
            [
              108.975796,
              34.226963
            ]
          ]
        ]
      }
    },
    {
      "type": "Feature",
      "properties": {
        "css": [
          "ward",
          "division-16"
        ],
        "name": "常安",
        "description": "常安 | 南区 | 16分 | 16分：东西南北四门 + 对称十字街",
        "_elementType": "rect"
      },
      "geometry": {
        "type": "Polygon",
        "coordinates": [
          [
            [
              108.883727,
              34.221707
            ],
            [
              108.895711,
              34.221707
            ],
            [
              108.895711,
              34.216981
            ],
            [
              108.883727,
              34.216981
            ],
            [
              108.883727,
              34.221707
            ]
          ]
        ]
      }
    },
    {
      "type": "Feature",
      "properties": {
        "css": [
          "ward",
          "division-16"
        ],
        "name": "通轨",
        "description": "通轨 | 南区 | 16分 | 16分：东西南北四门 + 对称十字街",
        "_elementType": "rect"
      },
      "geometry": {
        "type": "Polygon",
        "coordinates": [
          [
            [
              108.896164,
              34.221707
            ],
            [
              108.907566,
              34.221707
            ],
            [
              108.907566,
              34.216981
            ],
            [
              108.896164,
              34.216981
            ],
            [
              108.896164,
              34.221707
            ]
          ]
        ]
      }
    },
    {
      "type": "Feature",
      "properties": {
        "css": [
          "ward",
          "division-16"
        ],
        "name": "敦义",
        "description": "敦义 | 南区 | 16分 | 16分：东西南北四门 + 对称十字街",
        "_elementType": "rect"
      },
      "geometry": {
        "type": "Polygon",
        "coordinates": [
          [
            [
              108.908245,
              34.221707
            ],
            [
              108.919238,
              34.221707
            ],
            [
              108.919238,
              34.216981
            ],
            [
              108.908245,
              34.216981
            ],
            [
              108.908245,
              34.221707
            ]
          ]
        ]
      }
    },
    {
      "type": "Feature",
      "properties": {
        "css": [
          "ward",
          "division-12"
        ],
        "name": "丰安",
        "description": "丰安 | 南区 | 12分 | 12分：东西二门 + 一条东西横街",
        "_elementType": "rect"
      },
      "geometry": {
        "type": "Polygon",
        "coordinates": [
          [
            [
              108.920402,
              34.221707
            ],
            [
              108.927762,
              34.221707
            ],
            [
              108.927762,
              34.216981
            ],
            [
              108.920402,
              34.216981
            ],
            [
              108.920402,
              34.221707
            ]
          ]
        ]
      }
    },
    {
      "type": "Feature",
      "properties": {
        "css": [
          "ward",
          "division-12"
        ],
        "name": "道德",
        "description": "道德 | 南区 | 12分 | 12分：东西二门 + 一条东西横街",
        "_elementType": "rect"
      },
      "geometry": {
        "type": "Polygon",
        "coordinates": [
          [
            [
              108.928441,
              34.221707
            ],
            [
              108.934455,
              34.221707
            ],
            [
              108.934455,
              34.216981
            ],
            [
              108.928441,
              34.216981
            ],
            [
              108.928441,
              34.221707
            ]
          ]
        ]
      }
    },
    {
      "type": "Feature",
      "properties": {
        "css": [
          "ward",
          "division-12"
        ],
        "name": "开明",
        "description": "开明 | 南区 | 12分 | 12分：东西二门 + 一条东西横街",
        "_elementType": "rect"
      },
      "geometry": {
        "type": "Polygon",
        "coordinates": [
          [
            [
              108.936125,
              34.221707
            ],
            [
              108.942182,
              34.221707
            ],
            [
              108.942182,
              34.216981
            ],
            [
              108.936125,
              34.216981
            ],
            [
              108.936125,
              34.221707
            ]
          ]
        ]
      }
    },
    {
      "type": "Feature",
      "properties": {
        "css": [
          "ward",
          "division-12"
        ],
        "name": "大业",
        "description": "大业 | 南区 | 12分 | 12分：东西二门 + 一条东西横街",
        "_elementType": "rect"
      },
      "geometry": {
        "type": "Polygon",
        "coordinates": [
          [
            [
              108.942904,
              34.221707
            ],
            [
              108.950448,
              34.221707
            ],
            [
              108.950448,
              34.216981
            ],
            [
              108.942904,
              34.216981
            ],
            [
              108.942904,
              34.221707
            ]
          ]
        ]
      }
    },
    {
      "type": "Feature",
      "properties": {
        "css": [
          "ward",
          "division-16"
        ],
        "name": "晋昌",
        "description": "晋昌 | 南区 | 16分 | 16分：东西南北四门 + 对称十字街",
        "_elementType": "rect"
      },
      "geometry": {
        "type": "Polygon",
        "coordinates": [
          [
            [
              108.951892,
              34.221707
            ],
            [
              108.962907,
              34.221707
            ],
            [
              108.962907,
              34.216981
            ],
            [
              108.951892,
              34.216981
            ],
            [
              108.951892,
              34.221707
            ]
          ]
        ]
      }
    },
    {
      "type": "Feature",
      "properties": {
        "css": [
          "ward",
          "division-16"
        ],
        "name": "修政",
        "description": "修政 | 南区 | 16分 | 16分：东西南北四门 + 对称十字街",
        "_elementType": "rect"
      },
      "geometry": {
        "type": "Polygon",
        "coordinates": [
          [
            [
              108.963639,
              34.221707
            ],
            [
              108.975063,
              34.221707
            ],
            [
              108.975063,
              34.216981
            ],
            [
              108.963639,
              34.216981
            ],
            [
              108.963639,
              34.221707
            ]
          ]
        ]
      }
    },
    {
      "type": "Feature",
      "properties": {
        "css": [
          "ward",
          "division-16"
        ],
        "name": "立政",
        "description": "立政 | 南区 | 16分 | 16分：东西南北四门 + 对称十字街",
        "_elementType": "rect"
      },
      "geometry": {
        "type": "Polygon",
        "coordinates": [
          [
            [
              108.975796,
              34.221707
            ],
            [
              108.987813,
              34.221707
            ],
            [
              108.987813,
              34.216981
            ],
            [
              108.975796,
              34.216981
            ],
            [
              108.975796,
              34.221707
            ]
          ]
        ]
      }
    },
    {
      "type": "Feature",
      "properties": {
        "css": [
          "ward",
          "division-16"
        ],
        "name": "和平",
        "description": "和平 | 南区 | 16分 | 16分：东西南北四门 + 对称十字街",
        "_elementType": "rect"
      },
      "geometry": {
        "type": "Polygon",
        "coordinates": [
          [
            [
              108.883727,
              34.216716
            ],
            [
              108.895711,
              34.216716
            ],
            [
              108.895711,
              34.212034
            ],
            [
              108.883727,
              34.212034
            ],
            [
              108.883727,
              34.216716
            ]
          ]
        ]
      }
    },
    {
      "type": "Feature",
      "properties": {
        "css": [
          "ward",
          "division-16"
        ],
        "name": "归义",
        "description": "归义 | 南区 | 16分 | 16分：东西南北四门 + 对称十字街",
        "_elementType": "rect"
      },
      "geometry": {
        "type": "Polygon",
        "coordinates": [
          [
            [
              108.896164,
              34.216716
            ],
            [
              108.907566,
              34.216716
            ],
            [
              108.907566,
              34.212034
            ],
            [
              108.896164,
              34.212034
            ],
            [
              108.896164,
              34.216716
            ]
          ]
        ]
      }
    },
    {
      "type": "Feature",
      "properties": {
        "css": [
          "ward",
          "division-16"
        ],
        "name": "大通",
        "description": "大通 | 南区 | 16分 | 16分：东西南北四门 + 对称十字街",
        "_elementType": "rect"
      },
      "geometry": {
        "type": "Polygon",
        "coordinates": [
          [
            [
              108.908245,
              34.216716
            ],
            [
              108.919238,
              34.216716
            ],
            [
              108.919238,
              34.212034
            ],
            [
              108.908245,
              34.212034
            ],
            [
              108.908245,
              34.216716
            ]
          ]
        ]
      }
    },
    {
      "type": "Feature",
      "properties": {
        "css": [
          "ward",
          "division-12"
        ],
        "name": "昌明",
        "description": "昌明 | 南区 | 12分 | 12分：东西二门 + 一条东西横街",
        "_elementType": "rect"
      },
      "geometry": {
        "type": "Polygon",
        "coordinates": [
          [
            [
              108.920402,
              34.216716
            ],
            [
              108.927762,
              34.216716
            ],
            [
              108.927762,
              34.212034
            ],
            [
              108.920402,
              34.212034
            ],
            [
              108.920402,
              34.216716
            ]
          ]
        ]
      }
    },
    {
      "type": "Feature",
      "properties": {
        "css": [
          "ward",
          "division-12"
        ],
        "name": "光行",
        "description": "光行 | 南区 | 12分 | 12分：东西二门 + 一条东西横街",
        "_elementType": "rect"
      },
      "geometry": {
        "type": "Polygon",
        "coordinates": [
          [
            [
              108.928441,
              34.216716
            ],
            [
              108.934455,
              34.216716
            ],
            [
              108.934455,
              34.212034
            ],
            [
              108.928441,
              34.212034
            ],
            [
              108.928441,
              34.216716
            ]
          ]
        ]
      }
    },
    {
      "type": "Feature",
      "properties": {
        "css": [
          "ward",
          "division-12"
        ],
        "name": "保宁",
        "description": "保宁 | 南区 | 12分 | 12分：东西二门 + 一条东西横街",
        "_elementType": "rect"
      },
      "geometry": {
        "type": "Polygon",
        "coordinates": [
          [
            [
              108.936125,
              34.216716
            ],
            [
              108.942182,
              34.216716
            ],
            [
              108.942182,
              34.212034
            ],
            [
              108.936125,
              34.212034
            ],
            [
              108.936125,
              34.216716
            ]
          ]
        ]
      }
    },
    {
      "type": "Feature",
      "properties": {
        "css": [
          "ward",
          "division-12"
        ],
        "name": "昌乐",
        "description": "昌乐 | 南区 | 12分 | 12分：东西二门 + 一条东西横街",
        "_elementType": "rect"
      },
      "geometry": {
        "type": "Polygon",
        "coordinates": [
          [
            [
              108.942904,
              34.216716
            ],
            [
              108.950448,
              34.216716
            ],
            [
              108.950448,
              34.212034
            ],
            [
              108.942904,
              34.212034
            ],
            [
              108.942904,
              34.216716
            ]
          ]
        ]
      }
    },
    {
      "type": "Feature",
      "properties": {
        "css": [
          "ward",
          "division-16"
        ],
        "name": "通善",
        "description": "通善 | 南区 | 16分 | 16分：东西南北四门 + 对称十字街",
        "_elementType": "rect"
      },
      "geometry": {
        "type": "Polygon",
        "coordinates": [
          [
            [
              108.951892,
              34.216716
            ],
            [
              108.962907,
              34.216716
            ],
            [
              108.962907,
              34.212034
            ],
            [
              108.951892,
              34.212034
            ],
            [
              108.951892,
              34.216716
            ]
          ]
        ]
      }
    },
    {
      "type": "Feature",
      "properties": {
        "css": [
          "ward",
          "division-16"
        ],
        "name": "青龙",
        "description": "青龙 | 南区 | 16分 | 16分：东西南北四门 + 对称十字街",
        "_elementType": "rect"
      },
      "geometry": {
        "type": "Polygon",
        "coordinates": [
          [
            [
              108.963639,
              34.216716
            ],
            [
              108.975063,
              34.216716
            ],
            [
              108.975063,
              34.212034
            ],
            [
              108.963639,
              34.212034
            ],
            [
              108.963639,
              34.216716
            ]
          ]
        ]
      }
    },
    {
      "type": "Feature",
      "properties": {
        "css": [
          "ward",
          "division-16"
        ],
        "name": "敦化",
        "description": "敦化 | 南区 | 16分 | 16分：东西南北四门 + 对称十字街",
        "_elementType": "rect"
      },
      "geometry": {
        "type": "Polygon",
        "coordinates": [
          [
            [
              108.975796,
              34.216716
            ],
            [
              108.987813,
              34.216716
            ],
            [
              108.987813,
              34.212034
            ],
            [
              108.975796,
              34.212034
            ],
            [
              108.975796,
              34.216716
            ]
          ]
        ]
      }
    },
    {
      "type": "Feature",
      "properties": {
        "css": [
          "ward",
          "division-16"
        ],
        "name": "永阳",
        "description": "永阳 | 南区 | 16分 | 16分：东西南北四门 + 对称十字街",
        "_elementType": "rect"
      },
      "geometry": {
        "type": "Polygon",
        "coordinates": [
          [
            [
              108.883727,
              34.211769
            ],
            [
              108.895711,
              34.211769
            ],
            [
              108.895711,
              34.206822
            ],
            [
              108.883727,
              34.206822
            ],
            [
              108.883727,
              34.211769
            ]
          ]
        ]
      }
    },
    {
      "type": "Feature",
      "properties": {
        "css": [
          "ward",
          "division-16"
        ],
        "name": "昭行",
        "description": "昭行 | 南区 | 16分 | 16分：东西南北四门 + 对称十字街",
        "_elementType": "rect"
      },
      "geometry": {
        "type": "Polygon",
        "coordinates": [
          [
            [
              108.896164,
              34.211769
            ],
            [
              108.907566,
              34.211769
            ],
            [
              108.907566,
              34.206822
            ],
            [
              108.896164,
              34.206822
            ],
            [
              108.896164,
              34.211769
            ]
          ]
        ]
      }
    },
    {
      "type": "Feature",
      "properties": {
        "css": [
          "ward",
          "division-16"
        ],
        "name": "大安",
        "description": "大安 | 南区 | 16分 | 16分：东西南北四门 + 对称十字街",
        "_elementType": "rect"
      },
      "geometry": {
        "type": "Polygon",
        "coordinates": [
          [
            [
              108.908245,
              34.211769
            ],
            [
              108.919238,
              34.211769
            ],
            [
              108.919238,
              34.206822
            ],
            [
              108.908245,
              34.206822
            ],
            [
              108.908245,
              34.211769
            ]
          ]
        ]
      }
    },
    {
      "type": "Feature",
      "properties": {
        "css": [
          "ward",
          "division-12"
        ],
        "name": "安乐",
        "description": "安乐 | 南区 | 12分 | 12分：东西二门 + 一条东西横街",
        "_elementType": "rect"
      },
      "geometry": {
        "type": "Polygon",
        "coordinates": [
          [
            [
              108.920402,
              34.211769
            ],
            [
              108.927762,
              34.211769
            ],
            [
              108.927762,
              34.206822
            ],
            [
              108.920402,
              34.206822
            ],
            [
              108.920402,
              34.211769
            ]
          ]
        ]
      }
    },
    {
      "type": "Feature",
      "properties": {
        "css": [
          "ward",
          "division-12"
        ],
        "name": "延祚",
        "description": "延祚 | 南区 | 12分 | 12分：东西二门 + 一条东西横街",
        "_elementType": "rect"
      },
      "geometry": {
        "type": "Polygon",
        "coordinates": [
          [
            [
              108.928441,
              34.211769
            ],
            [
              108.934455,
              34.211769
            ],
            [
              108.934455,
              34.206822
            ],
            [
              108.928441,
              34.206822
            ],
            [
              108.928441,
              34.211769
            ]
          ]
        ]
      }
    },
    {
      "type": "Feature",
      "properties": {
        "css": [
          "ward",
          "division-12"
        ],
        "name": "安义",
        "description": "安义 | 南区 | 12分 | 12分：东西二门 + 一条东西横街",
        "_elementType": "rect"
      },
      "geometry": {
        "type": "Polygon",
        "coordinates": [
          [
            [
              108.936125,
              34.211769
            ],
            [
              108.942182,
              34.211769
            ],
            [
              108.942182,
              34.206822
            ],
            [
              108.936125,
              34.206822
            ],
            [
              108.936125,
              34.211769
            ]
          ]
        ]
      }
    },
    {
      "type": "Feature",
      "properties": {
        "css": [
          "ward",
          "division-12"
        ],
        "name": "安德",
        "description": "安德 | 南区 | 12分 | 12分：东西二门 + 一条东西横街",
        "_elementType": "rect"
      },
      "geometry": {
        "type": "Polygon",
        "coordinates": [
          [
            [
              108.942904,
              34.211769
            ],
            [
              108.950448,
              34.211769
            ],
            [
              108.950448,
              34.206822
            ],
            [
              108.942904,
              34.206822
            ],
            [
              108.942904,
              34.211769
            ]
          ]
        ]
      }
    },
    {
      "type": "Feature",
      "properties": {
        "css": [
          "ward",
          "division-16"
        ],
        "name": "通济",
        "description": "通济 | 南区 | 16分 | 16分：东西南北四门 + 对称十字街",
        "_elementType": "rect"
      },
      "geometry": {
        "type": "Polygon",
        "coordinates": [
          [
            [
              108.951892,
              34.211769
            ],
            [
              108.962907,
              34.211769
            ],
            [
              108.962907,
              34.206822
            ],
            [
              108.951892,
              34.206822
            ],
            [
              108.951892,
              34.211769
            ]
          ]
        ]
      }
    },
    {
      "type": "Feature",
      "properties": {
        "css": [
          "ward",
          "division-16"
        ],
        "name": "曲池",
        "description": "曲池 | 南区 | 16分 | 16分：东西南北四门 + 对称十字街",
        "_elementType": "rect"
      },
      "geometry": {
        "type": "Polygon",
        "coordinates": [
          [
            [
              108.963639,
              34.211769
            ],
            [
              108.975063,
              34.211769
            ],
            [
              108.975063,
              34.206822
            ],
            [
              108.963639,
              34.206822
            ],
            [
              108.963639,
              34.211769
            ]
          ]
        ]
      }
    },
    {
      "type": "Feature",
      "properties": {
        "css": [
          "ward",
          "division-16"
        ],
        "name": "修真",
        "description": "修真 | 皇城西侧 | 16分 | 16分：东西南北四门 + 对称十字街",
        "_elementType": "rect"
      },
      "geometry": {
        "type": "Polygon",
        "coordinates": [
          [
            [
              108.883727,
              34.280824
            ],
            [
              108.895711,
              34.280824
            ],
            [
              108.895711,
              34.27563
            ],
            [
              108.883727,
              34.27563
            ],
            [
              108.883727,
              34.280824
            ]
          ]
        ]
      }
    },
    {
      "type": "Feature",
      "properties": {
        "css": [
          "ward",
          "division-16"
        ],
        "name": "安定",
        "description": "安定 | 皇城西侧 | 16分 | 16分：东西南北四门 + 对称十字街",
        "_elementType": "rect"
      },
      "geometry": {
        "type": "Polygon",
        "coordinates": [
          [
            [
              108.896164,
              34.280824
            ],
            [
              108.907566,
              34.280824
            ],
            [
              108.907566,
              34.27563
            ],
            [
              108.896164,
              34.27563
            ],
            [
              108.896164,
              34.280824
            ]
          ]
        ]
      }
    },
    {
      "type": "Feature",
      "properties": {
        "css": [
          "ward",
          "division-16"
        ],
        "name": "修德",
        "description": "修德 | 皇城西侧 | 16分 | 16分：东西南北四门 + 对称十字街",
        "_elementType": "rect"
      },
      "geometry": {
        "type": "Polygon",
        "coordinates": [
          [
            [
              108.908245,
              34.280824
            ],
            [
              108.919238,
              34.280824
            ],
            [
              108.919238,
              34.27563
            ],
            [
              108.908245,
              34.27563
            ],
            [
              108.908245,
              34.280824
            ]
          ]
        ]
      }
    },
    {
      "type": "Feature",
      "properties": {
        "css": [
          "ward",
          "division-16"
        ],
        "name": "普宁",
        "description": "普宁 | 皇城西侧 | 16分 | 16分：东西南北四门 + 对称十字街",
        "_elementType": "rect"
      },
      "geometry": {
        "type": "Polygon",
        "coordinates": [
          [
            [
              108.883727,
              34.274958
            ],
            [
              108.895711,
              34.274958
            ],
            [
              108.895711,
              34.269764
            ],
            [
              108.883727,
              34.269764
            ],
            [
              108.883727,
              34.274958
            ]
          ]
        ]
      }
    },
    {
      "type": "Feature",
      "properties": {
        "css": [
          "ward",
          "division-16"
        ],
        "name": "休祥",
        "description": "休祥 | 皇城西侧 | 16分 | 16分：东西南北四门 + 对称十字街",
        "_elementType": "rect"
      },
      "geometry": {
        "type": "Polygon",
        "coordinates": [
          [
            [
              108.896164,
              34.274958
            ],
            [
              108.907566,
              34.274958
            ],
            [
              108.907566,
              34.269764
            ],
            [
              108.896164,
              34.269764
            ],
            [
              108.896164,
              34.274958
            ]
          ]
        ]
      }
    },
    {
      "type": "Feature",
      "properties": {
        "css": [
          "ward",
          "division-16"
        ],
        "name": "辅兴",
        "description": "辅兴 | 皇城西侧 | 16分 | 16分：东西南北四门 + 对称十字街",
        "_elementType": "rect"
      },
      "geometry": {
        "type": "Polygon",
        "coordinates": [
          [
            [
              108.908245,
              34.274958
            ],
            [
              108.919238,
              34.274958
            ],
            [
              108.919238,
              34.269764
            ],
            [
              108.908245,
              34.269764
            ],
            [
              108.908245,
              34.274958
            ]
          ]
        ]
      }
    },
    {
      "type": "Feature",
      "properties": {
        "css": [
          "ward",
          "division-16"
        ],
        "name": "义宁",
        "description": "义宁 | 皇城西侧 | 16分 | 16分：东西南北四门 + 对称十字街",
        "_elementType": "rect"
      },
      "geometry": {
        "type": "Polygon",
        "coordinates": [
          [
            [
              108.883727,
              34.268421
            ],
            [
              108.895711,
              34.268421
            ],
            [
              108.895711,
              34.261752
            ],
            [
              108.883727,
              34.261752
            ],
            [
              108.883727,
              34.268421
            ]
          ]
        ]
      }
    },
    {
      "type": "Feature",
      "properties": {
        "css": [
          "ward",
          "division-16"
        ],
        "name": "金城",
        "description": "金城 | 皇城西侧 | 16分 | 16分：东西南北四门 + 对称十字街",
        "_elementType": "rect"
      },
      "geometry": {
        "type": "Polygon",
        "coordinates": [
          [
            [
              108.896164,
              34.268421
            ],
            [
              108.907566,
              34.268421
            ],
            [
              108.907566,
              34.261752
            ],
            [
              108.896164,
              34.261752
            ],
            [
              108.896164,
              34.268421
            ]
          ]
        ]
      }
    },
    {
      "type": "Feature",
      "properties": {
        "css": [
          "ward",
          "division-16"
        ],
        "name": "颁政",
        "description": "颁政 | 皇城西侧 | 16分 | 16分：东西南北四门 + 对称十字街",
        "_elementType": "rect"
      },
      "geometry": {
        "type": "Polygon",
        "coordinates": [
          [
            [
              108.908245,
              34.268421
            ],
            [
              108.919238,
              34.268421
            ],
            [
              108.919238,
              34.261752
            ],
            [
              108.908245,
              34.261752
            ],
            [
              108.908245,
              34.268421
            ]
          ]
        ]
      }
    },
    {
      "type": "Feature",
      "properties": {
        "css": [
          "ward",
          "division-16"
        ],
        "name": "居德",
        "description": "居德 | 皇城西侧 | 16分 | 16分：东西南北四门 + 对称十字街",
        "_elementType": "rect"
      },
      "geometry": {
        "type": "Polygon",
        "coordinates": [
          [
            [
              108.883727,
              34.26108
            ],
            [
              108.895711,
              34.26108
            ],
            [
              108.895711,
              34.253677
            ],
            [
              108.883727,
              34.253677
            ],
            [
              108.883727,
              34.26108
            ]
          ]
        ]
      }
    },
    {
      "type": "Feature",
      "properties": {
        "css": [
          "ward",
          "division-16"
        ],
        "name": "醴泉",
        "description": "醴泉 | 皇城西侧 | 16分 | 16分：东西南北四门 + 对称十字街",
        "_elementType": "rect"
      },
      "geometry": {
        "type": "Polygon",
        "coordinates": [
          [
            [
              108.896164,
              34.26108
            ],
            [
              108.907566,
              34.26108
            ],
            [
              108.907566,
              34.253677
            ],
            [
              108.896164,
              34.253677
            ],
            [
              108.896164,
              34.26108
            ]
          ]
        ]
      }
    },
    {
      "type": "Feature",
      "properties": {
        "css": [
          "ward",
          "division-16"
        ],
        "name": "布政",
        "description": "布政 | 皇城西侧 | 16分 | 16分：东西南北四门 + 对称十字街",
        "_elementType": "rect"
      },
      "geometry": {
        "type": "Polygon",
        "coordinates": [
          [
            [
              108.908245,
              34.26108
            ],
            [
              108.919238,
              34.26108
            ],
            [
              108.919238,
              34.253677
            ],
            [
              108.908245,
              34.253677
            ],
            [
              108.908245,
              34.26108
            ]
          ]
        ]
      }
    },
    {
      "type": "Feature",
      "properties": {
        "css": [
          "ward",
          "division-12"
        ],
        "name": "光宅",
        "description": "光宅 | 皇城东侧 | 12分 | 12分：东西二门 + 一条东西横街",
        "_elementType": "rect"
      },
      "geometry": {
        "type": "Polygon",
        "coordinates": [
          [
            [
              108.951892,
              34.280824
            ],
            [
              108.959129,
              34.280824
            ],
            [
              108.959129,
              34.27563
            ],
            [
              108.951892,
              34.27563
            ],
            [
              108.951892,
              34.280824
            ]
          ]
        ]
      }
    },
    {
      "type": "Feature",
      "properties": {
        "css": [
          "ward",
          "division-12"
        ],
        "name": "翊善",
        "description": "翊善 | 皇城东侧 | 12分 | 12分：东西二门 + 一条东西横街",
        "_elementType": "rect"
      },
      "geometry": {
        "type": "Polygon",
        "coordinates": [
          [
            [
              108.960121,
              34.280824
            ],
            [
              108.962907,
              34.280824
            ],
            [
              108.962907,
              34.27563
            ],
            [
              108.960121,
              34.27563
            ],
            [
              108.960121,
              34.280824
            ]
          ]
        ]
      }
    },
    {
      "type": "Feature",
      "properties": {
        "css": [
          "ward",
          "division-16"
        ],
        "name": "长乐",
        "description": "长乐 | 皇城东侧 | 16分 | 16分：东西南北四门 + 对称十字街",
        "_elementType": "rect"
      },
      "geometry": {
        "type": "Polygon",
        "coordinates": [
          [
            [
              108.963639,
              34.280824
            ],
            [
              108.975063,
              34.280824
            ],
            [
              108.975063,
              34.27563
            ],
            [
              108.963639,
              34.27563
            ],
            [
              108.963639,
              34.280824
            ]
          ]
        ]
      }
    },
    {
      "type": "Feature",
      "properties": {
        "css": [
          "ward",
          "division-16"
        ],
        "name": "大安国寺",
        "description": "大安国寺 | 皇城东侧 | 16分 | 16分：东西南北四门 + 对称十字街",
        "_elementType": "rect"
      },
      "geometry": {
        "type": "Polygon",
        "coordinates": [
          [
            [
              108.975796,
              34.280824
            ],
            [
              108.98063,
              34.280824
            ],
            [
              108.98063,
              34.27563
            ],
            [
              108.975796,
              34.27563
            ],
            [
              108.975796,
              34.280824
            ]
          ]
        ]
      }
    },
    {
      "type": "Feature",
      "properties": {
        "css": [
          "ward",
          "division-16"
        ],
        "name": "入苑(十六王宅)",
        "description": "入苑(十六王宅) | 皇城东侧 | 16分 | 16分：东西南北四门 + 对称十字街",
        "_elementType": "rect"
      },
      "geometry": {
        "type": "Polygon",
        "coordinates": [
          [
            [
              108.98063,
              34.280824
            ],
            [
              108.987813,
              34.280824
            ],
            [
              108.987813,
              34.27563
            ],
            [
              108.98063,
              34.27563
            ],
            [
              108.98063,
              34.280824
            ]
          ]
        ]
      }
    },
    {
      "type": "Feature",
      "properties": {
        "css": [
          "ward",
          "division-12"
        ],
        "name": "永昌",
        "description": "永昌 | 皇城东侧 | 12分 | 12分：东西二门 + 一条东西横街",
        "_elementType": "rect"
      },
      "geometry": {
        "type": "Polygon",
        "coordinates": [
          [
            [
              108.951892,
              34.274958
            ],
            [
              108.959129,
              34.274958
            ],
            [
              108.959129,
              34.269764
            ],
            [
              108.951892,
              34.269764
            ],
            [
              108.951892,
              34.274958
            ]
          ]
        ]
      }
    },
    {
      "type": "Feature",
      "properties": {
        "css": [
          "ward",
          "division-12"
        ],
        "name": "来庭",
        "description": "来庭 | 皇城东侧 | 12分 | 12分：东西二门 + 一条东西横街",
        "_elementType": "rect"
      },
      "geometry": {
        "type": "Polygon",
        "coordinates": [
          [
            [
              108.960121,
              34.274958
            ],
            [
              108.962907,
              34.274958
            ],
            [
              108.962907,
              34.269764
            ],
            [
              108.960121,
              34.269764
            ],
            [
              108.960121,
              34.274958
            ]
          ]
        ]
      }
    },
    {
      "type": "Feature",
      "properties": {
        "css": [
          "ward",
          "division-16"
        ],
        "name": "大宁",
        "description": "大宁 | 皇城东侧 | 16分 | 16分：东西南北四门 + 对称十字街",
        "_elementType": "rect"
      },
      "geometry": {
        "type": "Polygon",
        "coordinates": [
          [
            [
              108.963639,
              34.274958
            ],
            [
              108.975063,
              34.274958
            ],
            [
              108.975063,
              34.269764
            ],
            [
              108.963639,
              34.269764
            ],
            [
              108.963639,
              34.274958
            ]
          ]
        ]
      }
    },
    {
      "type": "Feature",
      "properties": {
        "css": [
          "ward",
          "division-16"
        ],
        "name": "兴宁",
        "description": "兴宁 | 皇城东侧 | 16分 | 16分：东西南北四门 + 对称十字街",
        "_elementType": "rect"
      },
      "geometry": {
        "type": "Polygon",
        "coordinates": [
          [
            [
              108.975796,
              34.274958
            ],
            [
              108.987813,
              34.274958
            ],
            [
              108.987813,
              34.269764
            ],
            [
              108.975796,
              34.269764
            ],
            [
              108.975796,
              34.274958
            ]
          ]
        ]
      }
    },
    {
      "type": "Feature",
      "properties": {
        "css": [
          "ward",
          "division-16"
        ],
        "name": "永兴",
        "description": "永兴 | 皇城东侧 | 16分 | 16分：东西南北四门 + 对称十字街",
        "_elementType": "rect"
      },
      "geometry": {
        "type": "Polygon",
        "coordinates": [
          [
            [
              108.951892,
              34.268421
            ],
            [
              108.962907,
              34.268421
            ],
            [
              108.962907,
              34.261752
            ],
            [
              108.951892,
              34.261752
            ],
            [
              108.951892,
              34.268421
            ]
          ]
        ]
      }
    },
    {
      "type": "Feature",
      "properties": {
        "css": [
          "ward",
          "division-16"
        ],
        "name": "安兴",
        "description": "安兴 | 皇城东侧 | 16分 | 16分：东西南北四门 + 对称十字街",
        "_elementType": "rect"
      },
      "geometry": {
        "type": "Polygon",
        "coordinates": [
          [
            [
              108.963639,
              34.268421
            ],
            [
              108.975063,
              34.268421
            ],
            [
              108.975063,
              34.261752
            ],
            [
              108.963639,
              34.261752
            ],
            [
              108.963639,
              34.268421
            ]
          ]
        ]
      }
    },
    {
      "type": "Feature",
      "properties": {
        "css": [
          "ward",
          "division-16"
        ],
        "name": "永嘉",
        "description": "永嘉 | 皇城东侧 | 16分 | 16分：东西南北四门 + 对称十字街",
        "_elementType": "rect"
      },
      "geometry": {
        "type": "Polygon",
        "coordinates": [
          [
            [
              108.975796,
              34.268421
            ],
            [
              108.987813,
              34.268421
            ],
            [
              108.987813,
              34.263872
            ],
            [
              108.975796,
              34.263872
            ],
            [
              108.975796,
              34.268421
            ]
          ]
        ]
      }
    },
    {
      "type": "Feature",
      "properties": {
        "css": [
          "ward",
          "division-16"
        ],
        "name": "崇仁",
        "description": "崇仁 | 皇城东侧 | 16分 | 16分：东西南北四门 + 对称十字街",
        "_elementType": "rect"
      },
      "geometry": {
        "type": "Polygon",
        "coordinates": [
          [
            [
              108.951892,
              34.26108
            ],
            [
              108.962907,
              34.26108
            ],
            [
              108.962907,
              34.253677
            ],
            [
              108.951892,
              34.253677
            ],
            [
              108.951892,
              34.26108
            ]
          ]
        ]
      }
    },
    {
      "type": "Feature",
      "properties": {
        "css": [
          "ward",
          "division-16"
        ],
        "name": "胜业",
        "description": "胜业 | 皇城东侧 | 16分 | 16分：东西南北四门 + 对称十字街",
        "_elementType": "rect"
      },
      "geometry": {
        "type": "Polygon",
        "coordinates": [
          [
            [
              108.963639,
              34.26108
            ],
            [
              108.974546,
              34.26108
            ],
            [
              108.974546,
              34.253677
            ],
            [
              108.963639,
              34.253677
            ],
            [
              108.963639,
              34.26108
            ]
          ]
        ]
      }
    }
  ]
}