{
  "type": "FeatureCollection",
  "features": [
    {
      "type": "Feature",
      "properties": {
        "layer": "城墙"
      },
      "geometry": {
        "type": "LineString",
        "coordinates": [
          [
            108.876251,
            34.205073
          ],
          [
            108.876251,
            34.20616
          ],
          [
            108.87625,
            34.208765
          ],
          [
            108.87625,
            34.21267
          ],
          [
            108.87625,
            34.217658
          ],
          [
            108.87625,
            34.22351
          ],
          [
            108.87625,
            34.230011
          ],
          [
            108.87625,
            34.236941
          ],
          [
            108.87625,
            34.244084
          ],
          [
            108.87625,
            34.251221
          ],
          [
            108.876251,
            34.258136
          ],
          [
            108.876251,
            34.26461
          ],
          [
            108.876251,
            34.270426
          ],
          [
            108.876251,
            34.275367
          ],
          [
            108.876251,
            34.279214
          ],
          [
            108.876251,
            34.281751
          ],
          [
            108.876251,
            34.282759
          ],
          [
            108.99168,
            34.282759
          ],
          [
            108.99168,
            34.200316
          ],
          [
            108.984239,
            34.200316
          ],
          [
            108.984239,
            34.193816
          ],
          [
            108.971793,
            34.193816
          ],
          [
            108.971793,
            34.205073
          ],
          [
            108.876251,
            34.205073
          ]
        ]
      }
    },
    {
      "type": "Feature",
      "properties": {
        "layer": "城墙"
      },
      "geometry": {
        "type": "LineString",
        "coordinates": [
          [
            108.952045,
            34.308443
          ],
          [
            108.967273,
            34.308443
          ],
          [
            108.952045,
            34.308443
          ],
          [
            108.952045,
            34.282759
          ],
          [
            108.975269,
            34.282759
          ],
          [
            108.975269,
            34.294221
          ],
          [
            108.97068,
            34.294221
          ],
          [
            108.967273,
            34.308443
          ],
          [
            108.952045,
            34.308443
          ],
          [
            108.952045,
            34.309975
          ],
          [
            108.967273,
            34.309975
          ],
          [
            108.967273,
            34.308443
          ]
        ]
      }
    },
    {
      "type": "Feature",
      "properties": {
        "layer": "城墙"
      },
      "geometry": {
        "type": "LineString",
        "coordinates": [
          [
            108.917694,
            34.290158
          ],
          [
            108.952044,
            34.290158
          ],
          [
            108.952044,
            34.282759
          ],
          [
            108.917694,
            34.282759
          ],
          [
            108.917694,
            34.290158
          ]
        ]
      }
    },
    {
      "type": "Feature",
      "properties": {
        "layer": "城墙"
      },
      "geometry": {
        "type": "LineString",
        "coordinates": [
          [
            108.917694,
            34.282759
          ],
          [
            108.950515,
            34.282759
          ],
          [
            108.950515,
            34.269864
          ],
          [
            108.917694,
            34.269864
          ],
          [
            108.917694,
            34.282759
          ]
        ]
      }
    },
    {
      "type": "Feature",
      "properties": {
        "layer": "城墙"
      },
      "geometry": {
        "type": "LineString",
        "coordinates": [
          [
            108.943283,
            34.281279
          ],
          [
            108.94968,
            34.281279
          ],
          [
            108.94968,
            34.271449
          ],
          [
            108.943283,
            34.271449
          ],
          [
            108.943283,
            34.281279
          ]
        ]
      }
    },
    {
      "type": "Feature",
      "properties": {
        "layer": "城墙"
      },
      "geometry": {
        "type": "LineString",
        "coordinates": [
          [
            108.918667,
            34.281279
          ],
          [
            108.926038,
            34.281279
          ],
          [
            108.926038,
            34.271449
          ],
          [
            108.918667,
            34.271449
          ],
          [
            108.918667,
            34.281279
          ]
        ]
      }
    },
    {
      "type": "Feature",
      "properties": {
        "layer": "城墙"
      },
      "geometry": {
        "type": "LineString",
        "coordinates": [
          [
            108.935078,
            34.29819
          ],
          [
            108.935078,
            34.290158
          ],
          [
            108.952045,
            34.290158
          ],
          [
            108.952045,
            34.29819
          ],
          [
            108.935078,
            34.29819
          ]
        ]
      }
    },
    {
      "type": "Feature",
      "properties": {
        "layer": "城墙"
      },
      "geometry": {
        "type": "LineString",
        "coordinates": [
          [
            108.917694,
            34.269864
          ],
          [
            108.950515,
            34.269864
          ],
          [
            108.950515,
            34.252847
          ],
          [
            108.917694,
            34.252847
          ],
          [
            108.917694,
            34.269864
          ]
        ]
      }
    }
  ]
}