{
  "type": "FeatureCollection",
  "features": [
    {
      "type": "Feature",
      "properties": {
        "name": "普宁",
        "layer": "城坊"
      },
      "geometry": {
        "type": "Polygon",
        "coordinates": [
          [
            [
              108.88988,
              34.274832
            ],
            [
              108.878476,
              34.274832
            ],
            [
              108.878476,
              34.269864
            ],
            [
              108.88988,
              34.269864
            ],
            [
              108.88988,
              34.274832
            ]
          ]
        ]
      }
    },
    {
      "type": "Feature",
      "properties": {
        "name": "修德",
        "layer": "城坊"
      },
      "geometry": {
        "type": "Polygon",
        "coordinates": [
          [
            [
              108.915747,
              34.281491
            ],
            [
              108.904482,
              34.281491
            ],
            [
              108.904482,
              34.275783
            ],
            [
              108.915747,
              34.275783
            ],
            [
              108.915747,
              34.281491
            ]
          ]
        ]
      }
    },
    {
      "type": "Feature",
      "properties": {
        "name": "安定",
        "layer": "城坊"
      },
      "geometry": {
        "type": "Polygon",
        "coordinates": [
          [
            [
              108.903231,
              34.281491
            ],
            [
              108.891827,
              34.281491
            ],
            [
              108.891827,
              34.275783
            ],
            [
              108.903231,
              34.275783
            ],
            [
              108.903231,
              34.281491
            ]
          ]
        ]
      }
    },
    {
      "type": "Feature",
      "properties": {
        "name": "修真",
        "layer": "城坊"
      },
      "geometry": {
        "type": "Polygon",
        "coordinates": [
          [
            [
              108.88988,
              34.281491
            ],
            [
              108.878476,
              34.281491
            ],
            [
              108.878476,
              34.275783
            ],
            [
              108.88988,
              34.275783
            ],
            [
              108.88988,
              34.281491
            ]
          ]
        ]
      }
    },
    {
      "type": "Feature",
      "properties": {
        "name": "休祥",
        "layer": "城坊"
      },
      "geometry": {
        "type": "Polygon",
        "coordinates": [
          [
            [
              108.903231,
              34.274832
            ],
            [
              108.891827,
              34.274832
            ],
            [
              108.891827,
              34.269864
            ],
            [
              108.903231,
              34.269864
            ],
            [
              108.903231,
              34.274832
            ]
          ]
        ]
      }
    },
    {
      "type": "Feature",
      "properties": {
        "name": "义宁",
        "layer": "城坊"
      },
      "geometry": {
        "type": "Polygon",
        "coordinates": [
          [
            [
              108.88988,
              34.268596
            ],
            [
              108.878476,
              34.268596
            ],
            [
              108.878476,
              34.26088
            ],
            [
              108.88988,
              34.26088
            ],
            [
              108.88988,
              34.268596
            ]
          ]
        ]
      }
    },
    {
      "type": "Feature",
      "properties": {
        "name": "颁政",
        "layer": "城坊"
      },
      "geometry": {
        "type": "Polygon",
        "coordinates": [
          [
            [
              108.915747,
              34.268596
            ],
            [
              108.904482,
              34.268596
            ],
            [
              108.904482,
              34.26088
            ],
            [
              108.915747,
              34.26088
            ],
            [
              108.915747,
              34.268596
            ]
          ]
        ]
      }
    },
    {
      "type": "Feature",
      "properties": {
        "name": "醴泉",
        "layer": "城坊"
      },
      "geometry": {
        "type": "Polygon",
        "coordinates": [
          [
            [
              108.903231,
              34.259929
            ],
            [
              108.891827,
              34.259929
            ],
            [
              108.891827,
              34.252847
            ],
            [
              108.903231,
              34.252847
            ],
            [
              108.903231,
              34.259929
            ]
          ]
        ]
      }
    },
    {
      "type": "Feature",
      "properties": {
        "name": "居德",
        "layer": "城坊"
      },
      "geometry": {
        "type": "Polygon",
        "coordinates": [
          [
            [
              108.88988,
              34.259929
            ],
            [
              108.878476,
              34.259929
            ],
            [
              108.878476,
              34.252847
            ],
            [
              108.88988,
              34.252847
            ],
            [
              108.88988,
              34.259929
            ]
          ]
        ]
      }
    },
    {
      "type": "Feature",
      "properties": {
        "name": "崇化",
        "layer": "城坊"
      },
      "geometry": {
        "type": "Polygon",
        "coordinates": [
          [
            [
              108.88988,
              34.241221
            ],
            [
              108.878476,
              34.241221
            ],
            [
              108.878476,
              34.236676
            ],
            [
              108.88988,
              34.236676
            ],
            [
              108.88988,
              34.241221
            ]
          ]
        ]
      }
    },
    {
      "type": "Feature",
      "properties": {
        "name": "怀远",
        "layer": "城坊"
      },
      "geometry": {
        "type": "Polygon",
        "coordinates": [
          [
            [
              108.903231,
              34.241221
            ],
            [
              108.891827,
              34.241221
            ],
            [
              108.891827,
              34.236676
            ],
            [
              108.903231,
              34.236676
            ],
            [
              108.903231,
              34.241221
            ]
          ]
        ]
      }
    },
    {
      "type": "Feature",
      "properties": {
        "name": "延康",
        "layer": "城坊"
      },
      "geometry": {
        "type": "Polygon",
        "coordinates": [
          [
            [
              108.915747,
              34.241221
            ],
            [
              108.904482,
              34.241221
            ],
            [
              108.904482,
              34.236676
            ],
            [
              108.915747,
              34.236676
            ],
            [
              108.915747,
              34.241221
            ]
          ]
        ]
      }
    },
    {
      "type": "Feature",
      "properties": {
        "name": "豐邑",
        "layer": "城坊"
      },
      "geometry": {
        "type": "Polygon",
        "coordinates": [
          [
            [
              108.88988,
              34.235724
            ],
            [
              108.878476,
              34.235724
            ],
            [
              108.878476,
              34.231602
            ],
            [
              108.88988,
              34.231602
            ],
            [
              108.88988,
              34.235724
            ]
          ]
        ]
      }
    },
    {
      "type": "Feature",
      "properties": {
        "name": "长寿",
        "layer": "城坊"
      },
      "geometry": {
        "type": "Polygon",
        "coordinates": [
          [
            [
              108.903231,
              34.235724
            ],
            [
              108.891827,
              34.235724
            ],
            [
              108.891827,
              34.231602
            ],
            [
              108.903231,
              34.231602
            ],
            [
              108.903231,
              34.235724
            ]
          ]
        ]
      }
    },
    {
      "type": "Feature",
      "properties": {
        "name": "崇贤",
        "layer": "城坊"
      },
      "geometry": {
        "type": "Polygon",
        "coordinates": [
          [
            [
              108.915747,
              34.235724
            ],
            [
              108.904482,
              34.235724
            ],
            [
              108.904482,
              34.231602
            ],
            [
              108.915747,
              34.231602
            ],
            [
              108.915747,
              34.235724
            ]
          ]
        ]
      }
    },
    {
      "type": "Feature",
      "properties": {
        "name": "待贤",
        "layer": "城坊"
      },
      "geometry": {
        "type": "Polygon",
        "coordinates": [
          [
            [
              108.88988,
              34.230334
            ],
            [
              108.878476,
              34.230334
            ],
            [
              108.878476,
              34.226106
            ],
            [
              108.88988,
              34.226106
            ],
            [
              108.88988,
              34.230334
            ]
          ]
        ]
      }
    },
    {
      "type": "Feature",
      "properties": {
        "name": "嘉会",
        "layer": "城坊"
      },
      "geometry": {
        "type": "Polygon",
        "coordinates": [
          [
            [
              108.903231,
              34.230334
            ],
            [
              108.891827,
              34.230334
            ],
            [
              108.891827,
              34.226106
            ],
            [
              108.903231,
              34.226106
            ],
            [
              108.903231,
              34.230334
            ]
          ]
        ]
      }
    },
    {
      "type": "Feature",
      "properties": {
        "name": "延福",
        "layer": "城坊"
      },
      "geometry": {
        "type": "Polygon",
        "coordinates": [
          [
            [
              108.915747,
              34.230334
            ],
            [
              108.904482,
              34.230334
            ],
            [
              108.904482,
              34.226106
            ],
            [
              108.915747,
              34.226106
            ],
            [
              108.915747,
              34.230334
            ]
          ]
        ]
      }
    },
    {
      "type": "Feature",
      "properties": {
        "name": "延寿",
        "layer": "城坊"
      },
      "geometry": {
        "type": "Polygon",
        "coordinates": [
          [
            [
              108.915747,
              34.251579
            ],
            [
              108.904482,
              34.251579
            ],
            [
              108.904482,
              34.247034
            ],
            [
              108.915747,
              34.247034
            ],
            [
              108.915747,
              34.251579
            ]
          ]
        ]
      }
    },
    {
      "type": "Feature",
      "properties": {
        "name": "光德",
        "layer": "城坊"
      },
      "geometry": {
        "type": "Polygon",
        "coordinates": [
          [
            [
              108.915747,
              34.246294
            ],
            [
              108.904482,
              34.246294
            ],
            [
              108.904482,
              34.242172
            ],
            [
              108.915747,
              34.242172
            ],
            [
              108.915747,
              34.246294
            ]
          ]
        ]
      }
    },
    {
      "type": "Feature",
      "properties": {
        "name": "群贤",
        "layer": "城坊"
      },
      "geometry": {
        "type": "Polygon",
        "coordinates": [
          [
            [
              108.88988,
              34.251579
            ],
            [
              108.878476,
              34.251579
            ],
            [
              108.878476,
              34.246928
            ],
            [
              108.88988,
              34.246928
            ],
            [
              108.88988,
              34.251579
            ]
          ]
        ]
      }
    },
    {
      "type": "Feature",
      "properties": {
        "name": "怀德",
        "layer": "城坊"
      },
      "geometry": {
        "type": "Polygon",
        "coordinates": [
          [
            [
              108.88988,
              34.246294
            ],
            [
              108.878476,
              34.246294
            ],
            [
              108.878476,
              34.242172
            ],
            [
              108.88988,
              34.242172
            ],
            [
              108.88988,
              34.246294
            ]
          ]
        ]
      }
    },
    {
      "type": "Feature",
      "properties": {
        "name": "西市",
        "layer": "城坊"
      },
      "geometry": {
        "type": "Polygon",
        "coordinates": [
          [
            [
              108.903231,
              34.251579
            ],
            [
              108.891827,
              34.251579
            ],
            [
              108.891827,
              34.242172
            ],
            [
              108.903231,
              34.242172
            ],
            [
              108.903231,
              34.251579
            ]
          ]
        ]
      }
    },
    {
      "type": "Feature",
      "properties": {
        "name": "辅兴",
        "layer": "城坊"
      },
      "geometry": {
        "type": "Polygon",
        "coordinates": [
          [
            [
              108.915747,
              34.274832
            ],
            [
              108.904482,
              34.274832
            ],
            [
              108.904482,
              34.269864
            ],
            [
              108.915747,
              34.269864
            ],
            [
              108.915747,
              34.274832
            ]
          ]
        ]
      }
    },
    {
      "type": "Feature",
      "properties": {
        "name": "布政",
        "layer": "城坊"
      },
      "geometry": {
        "type": "Polygon",
        "coordinates": [
          [
            [
              108.915747,
              34.259929
            ],
            [
              108.904482,
              34.259929
            ],
            [
              108.904482,
              34.252847
            ],
            [
              108.915747,
              34.252847
            ],
            [
              108.915747,
              34.259929
            ]
          ]
        ]
      }
    },
    {
      "type": "Feature",
      "properties": {
        "name": "和平",
        "layer": "城坊"
      },
      "geometry": {
        "type": "Polygon",
        "coordinates": [
          [
            [
              108.88988,
              34.215114
            ],
            [
              108.878476,
              34.215114
            ],
            [
              108.878476,
              34.211415
            ],
            [
              108.88988,
              34.211415
            ],
            [
              108.88988,
              34.215114
            ]
          ]
        ]
      }
    },
    {
      "type": "Feature",
      "properties": {
        "name": "永阳",
        "layer": "城坊"
      },
      "geometry": {
        "type": "Polygon",
        "coordinates": [
          [
            [
              108.88988,
              34.210463
            ],
            [
              108.878476,
              34.210463
            ],
            [
              108.878476,
              34.205813
            ],
            [
              108.88988,
              34.205813
            ],
            [
              108.88988,
              34.210463
            ]
          ]
        ]
      }
    },
    {
      "type": "Feature",
      "properties": {
        "name": "歸義",
        "layer": "城坊"
      },
      "geometry": {
        "type": "Polygon",
        "coordinates": [
          [
            [
              108.903231,
              34.215114
            ],
            [
              108.891827,
              34.215114
            ],
            [
              108.891827,
              34.211415
            ],
            [
              108.903231,
              34.211415
            ],
            [
              108.903231,
              34.215114
            ]
          ]
        ]
      }
    },
    {
      "type": "Feature",
      "properties": {
        "name": "大通",
        "layer": "城坊"
      },
      "geometry": {
        "type": "Polygon",
        "coordinates": [
          [
            [
              108.915747,
              34.215114
            ],
            [
              108.904482,
              34.215114
            ],
            [
              108.904482,
              34.211415
            ],
            [
              108.915747,
              34.211415
            ],
            [
              108.915747,
              34.215114
            ]
          ]
        ]
      }
    },
    {
      "type": "Feature",
      "properties": {
        "name": "大安",
        "layer": "城坊"
      },
      "geometry": {
        "type": "Polygon",
        "coordinates": [
          [
            [
              108.915747,
              34.210463
            ],
            [
              108.904482,
              34.210463
            ],
            [
              108.904482,
              34.205813
            ],
            [
              108.915747,
              34.205813
            ],
            [
              108.915747,
              34.210463
            ]
          ]
        ]
      }
    },
    {
      "type": "Feature",
      "properties": {
        "name": "太平",
        "layer": "城坊"
      },
      "geometry": {
        "type": "Polygon",
        "coordinates": [
          [
            [
              108.917694,
              34.247034
            ],
            [
              108.917694,
              34.251579
            ],
            [
              108.925343,
              34.251579
            ],
            [
              108.925343,
              34.247034
            ],
            [
              108.917694,
              34.247034
            ]
          ]
        ]
      }
    },
    {
      "type": "Feature",
      "properties": {
        "name": "通义",
        "layer": "城坊"
      },
      "geometry": {
        "type": "Polygon",
        "coordinates": [
          [
            [
              108.925343,
              34.2464
            ],
            [
              108.917694,
              34.2464
            ],
            [
              108.917694,
              34.242172
            ],
            [
              108.925343,
              34.242172
            ],
            [
              108.925343,
              34.2464
            ]
          ]
        ]
      }
    },
    {
      "type": "Feature",
      "properties": {
        "name": "兴化",
        "layer": "城坊"
      },
      "geometry": {
        "type": "Polygon",
        "coordinates": [
          [
            [
              108.925343,
              34.241221
            ],
            [
              108.917694,
              34.241221
            ],
            [
              108.917694,
              34.236676
            ],
            [
              108.925343,
              34.236676
            ],
            [
              108.925343,
              34.241221
            ]
          ]
        ]
      }
    },
    {
      "type": "Feature",
      "properties": {
        "name": "崇德",
        "layer": "城坊"
      },
      "geometry": {
        "type": "Polygon",
        "coordinates": [
          [
            [
              108.925343,
              34.235724
            ],
            [
              108.917694,
              34.235724
            ],
            [
              108.917694,
              34.231602
            ],
            [
              108.925343,
              34.231602
            ],
            [
              108.925343,
              34.235724
            ]
          ]
        ]
      }
    },
    {
      "type": "Feature",
      "properties": {
        "name": "怀贞",
        "layer": "城坊"
      },
      "geometry": {
        "type": "Polygon",
        "coordinates": [
          [
            [
              108.925343,
              34.230334
            ],
            [
              108.917694,
              34.230334
            ],
            [
              108.917694,
              34.226106
            ],
            [
              108.925343,
              34.226106
            ],
            [
              108.925343,
              34.230334
            ]
          ]
        ]
      }
    },
    {
      "type": "Feature",
      "properties": {
        "name": "宣义",
        "layer": "城坊"
      },
      "geometry": {
        "type": "Polygon",
        "coordinates": [
          [
            [
              108.925343,
              34.225155
            ],
            [
              108.917694,
              34.225155
            ],
            [
              108.917694,
              34.221456
            ],
            [
              108.925343,
              34.221456
            ],
            [
              108.925343,
              34.225155
            ]
          ]
        ]
      }
    },
    {
      "type": "Feature",
      "properties": {
        "name": "兴安",
        "layer": "城坊"
      },
      "geometry": {
        "type": "Polygon",
        "coordinates": [
          [
            [
              108.925343,
              34.22061
            ],
            [
              108.917694,
              34.22061
            ],
            [
              108.917694,
              34.216065
            ],
            [
              108.925343,
              34.216065
            ],
            [
              108.925343,
              34.22061
            ]
          ]
        ]
      }
    },
    {
      "type": "Feature",
      "properties": {
        "name": "昌明",
        "layer": "城坊"
      },
      "geometry": {
        "type": "Polygon",
        "coordinates": [
          [
            [
              108.925343,
              34.215114
            ],
            [
              108.917694,
              34.215114
            ],
            [
              108.917694,
              34.211415
            ],
            [
              108.925343,
              34.211415
            ],
            [
              108.925343,
              34.215114
            ]
          ]
        ]
      }
    },
    {
      "type": "Feature",
      "properties": {
        "name": "安乐",
        "layer": "城坊"
      },
      "geometry": {
        "type": "Polygon",
        "coordinates": [
          [
            [
              108.925343,
              34.210463
            ],
            [
              108.917694,
              34.210463
            ],
            [
              108.917694,
              34.205813
            ],
            [
              108.925343,
              34.205813
            ],
            [
              108.925343,
              34.210463
            ]
          ]
        ]
      }
    },
    {
      "type": "Feature",
      "properties": {
        "name": "善和",
        "layer": "城坊"
      },
      "geometry": {
        "type": "Polygon",
        "coordinates": [
          [
            [
              108.933131,
              34.251579
            ],
            [
              108.926594,
              34.251579
            ],
            [
              108.926594,
              34.247034
            ],
            [
              108.933131,
              34.247034
            ],
            [
              108.933131,
              34.251579
            ]
          ]
        ]
      }
    },
    {
      "type": "Feature",
      "properties": {
        "name": "通化",
        "layer": "城坊"
      },
      "geometry": {
        "type": "Polygon",
        "coordinates": [
          [
            [
              108.933131,
              34.2464
            ],
            [
              108.926594,
              34.2464
            ],
            [
              108.926594,
              34.242172
            ],
            [
              108.933131,
              34.242172
            ],
            [
              108.933131,
              34.2464
            ]
          ]
        ]
      }
    },
    {
      "type": "Feature",
      "properties": {
        "name": "兴乐",
        "layer": "城坊"
      },
      "geometry": {
        "type": "Polygon",
        "coordinates": [
          [
            [
              108.933131,
              34.241221
            ],
            [
              108.926594,
              34.241221
            ],
            [
              108.926594,
              34.236676
            ],
            [
              108.933131,
              34.236676
            ],
            [
              108.933131,
              34.241221
            ]
          ]
        ]
      }
    },
    {
      "type": "Feature",
      "properties": {
        "name": "安业",
        "layer": "城坊"
      },
      "geometry": {
        "type": "Polygon",
        "coordinates": [
          [
            [
              108.933131,
              34.235724
            ],
            [
              108.926594,
              34.235724
            ],
            [
              108.926594,
              34.231602
            ],
            [
              108.933131,
              34.231602
            ],
            [
              108.933131,
              34.235724
            ]
          ]
        ]
      }
    },
    {
      "type": "Feature",
      "properties": {
        "name": "崇业",
        "layer": "城坊"
      },
      "geometry": {
        "type": "Polygon",
        "coordinates": [
          [
            [
              108.933131,
              34.230334
            ],
            [
              108.926594,
              34.230334
            ],
            [
              108.926594,
              34.226106
            ],
            [
              108.933131,
              34.226106
            ],
            [
              108.933131,
              34.230334
            ]
          ]
        ]
      }
    },
    {
      "type": "Feature",
      "properties": {
        "name": "永达",
        "layer": "城坊"
      },
      "geometry": {
        "type": "Polygon",
        "coordinates": [
          [
            [
              108.933131,
              34.225155
            ],
            [
              108.926594,
              34.225155
            ],
            [
              108.926594,
              34.221456
            ],
            [
              108.933131,
              34.221456
            ],
            [
              108.933131,
              34.225155
            ]
          ]
        ]
      }
    },
    {
      "type": "Feature",
      "properties": {
        "name": "道德",
        "layer": "城坊"
      },
      "geometry": {
        "type": "Polygon",
        "coordinates": [
          [
            [
              108.933131,
              34.22061
            ],
            [
              108.926594,
              34.22061
            ],
            [
              108.926594,
              34.216065
            ],
            [
              108.933131,
              34.216065
            ],
            [
              108.933131,
              34.22061
            ]
          ]
        ]
      }
    },
    {
      "type": "Feature",
      "properties": {
        "name": "光行",
        "layer": "城坊"
      },
      "geometry": {
        "type": "Polygon",
        "coordinates": [
          [
            [
              108.933131,
              34.215114
            ],
            [
              108.926594,
              34.215114
            ],
            [
              108.926594,
              34.211415
            ],
            [
              108.933131,
              34.211415
            ],
            [
              108.933131,
              34.215114
            ]
          ]
        ]
      }
    },
    {
      "type": "Feature",
      "properties": {
        "name": "延祚",
        "layer": "城坊"
      },
      "geometry": {
        "type": "Polygon",
        "coordinates": [
          [
            [
              108.933131,
              34.210463
            ],
            [
              108.926594,
              34.210463
            ],
            [
              108.926594,
              34.205813
            ],
            [
              108.933131,
              34.205813
            ],
            [
              108.933131,
              34.210463
            ]
          ]
        ]
      }
    },
    {
      "type": "Feature",
      "properties": {
        "name": "兴道",
        "layer": "城坊"
      },
      "geometry": {
        "type": "Polygon",
        "coordinates": [
          [
            [
              108.941336,
              34.251579
            ],
            [
              108.9348,
              34.251579
            ],
            [
              108.9348,
              34.247034
            ],
            [
              108.941336,
              34.247034
            ],
            [
              108.941336,
              34.251579
            ]
          ]
        ]
      }
    },
    {
      "type": "Feature",
      "properties": {
        "name": "开化",
        "layer": "城坊"
      },
      "geometry": {
        "type": "Polygon",
        "coordinates": [
          [
            [
              108.941336,
              34.2464
            ],
            [
              108.9348,
              34.2464
            ],
            [
              108.9348,
              34.242172
            ],
            [
              108.941336,
              34.242172
            ],
            [
              108.941336,
              34.2464
            ]
          ]
        ]
      }
    },
    {
      "type": "Feature",
      "properties": {
        "name": "安仁",
        "layer": "城坊"
      },
      "geometry": {
        "type": "Polygon",
        "coordinates": [
          [
            [
              108.9348,
              34.241221
            ],
            [
              108.941336,
              34.241221
            ],
            [
              108.941336,
              34.236676
            ],
            [
              108.9348,
              34.236676
            ],
            [
              108.9348,
              34.241221
            ]
          ]
        ]
      }
    },
    {
      "type": "Feature",
      "properties": {
        "name": "光福",
        "layer": "城坊"
      },
      "geometry": {
        "type": "Polygon",
        "coordinates": [
          [
            [
              108.9348,
              34.235724
            ],
            [
              108.941336,
              34.235724
            ],
            [
              108.941336,
              34.231602
            ],
            [
              108.9348,
              34.231602
            ],
            [
              108.9348,
              34.235724
            ]
          ]
        ]
      }
    },
    {
      "type": "Feature",
      "properties": {
        "name": "靖善",
        "layer": "城坊"
      },
      "geometry": {
        "type": "Polygon",
        "coordinates": [
          [
            [
              108.9348,
              34.230334
            ],
            [
              108.941336,
              34.230334
            ],
            [
              108.941336,
              34.226106
            ],
            [
              108.9348,
              34.226106
            ],
            [
              108.9348,
              34.230334
            ]
          ]
        ]
      }
    },
    {
      "type": "Feature",
      "properties": {
        "name": "兰陵",
        "layer": "城坊"
      },
      "geometry": {
        "type": "Polygon",
        "coordinates": [
          [
            [
              108.9348,
              34.225155
            ],
            [
              108.941336,
              34.225155
            ],
            [
              108.941336,
              34.221456
            ],
            [
              108.9348,
              34.221456
            ],
            [
              108.9348,
              34.225155
            ]
          ]
        ]
      }
    },
    {
      "type": "Feature",
      "properties": {
        "name": "开明",
        "layer": "城坊"
      },
      "geometry": {
        "type": "Polygon",
        "coordinates": [
          [
            [
              108.9348,
              34.22061
            ],
            [
              108.941336,
              34.22061
            ],
            [
              108.941336,
              34.216065
            ],
            [
              108.9348,
              34.216065
            ],
            [
              108.9348,
              34.22061
            ]
          ]
        ]
      }
    },
    {
      "type": "Feature",
      "properties": {
        "name": "保宁",
        "layer": "城坊"
      },
      "geometry": {
        "type": "Polygon",
        "coordinates": [
          [
            [
              108.9348,
              34.215114
            ],
            [
              108.941336,
              34.215114
            ],
            [
              108.941336,
              34.211415
            ],
            [
              108.9348,
              34.211415
            ],
            [
              108.9348,
              34.215114
            ]
          ]
        ]
      }
    },
    {
      "type": "Feature",
      "properties": {
        "name": "安仪",
        "layer": "城坊"
      },
      "geometry": {
        "type": "Polygon",
        "coordinates": [
          [
            [
              108.9348,
              34.210463
            ],
            [
              108.941336,
              34.210463
            ],
            [
              108.941336,
              34.205813
            ],
            [
              108.9348,
              34.205813
            ],
            [
              108.9348,
              34.210463
            ]
          ]
        ]
      }
    },
    {
      "type": "Feature",
      "properties": {
        "name": "安德",
        "layer": "城坊"
      },
      "geometry": {
        "type": "Polygon",
        "coordinates": [
          [
            [
              108.942588,
              34.210463
            ],
            [
              108.950515,
              34.210463
            ],
            [
              108.950515,
              34.205813
            ],
            [
              108.942588,
              34.205813
            ],
            [
              108.942588,
              34.210463
            ]
          ]
        ]
      }
    },
    {
      "type": "Feature",
      "properties": {
        "name": "昌乐",
        "layer": "城坊"
      },
      "geometry": {
        "type": "Polygon",
        "coordinates": [
          [
            [
              108.942588,
              34.215114
            ],
            [
              108.950515,
              34.215114
            ],
            [
              108.950515,
              34.211415
            ],
            [
              108.942588,
              34.211415
            ],
            [
              108.942588,
              34.215114
            ]
          ]
        ]
      }
    },
    {
      "type": "Feature",
      "properties": {
        "name": "大业",
        "layer": "城坊"
      },
      "geometry": {
        "type": "Polygon",
        "coordinates": [
          [
            [
              108.942588,
              34.22061
            ],
            [
              108.950515,
              34.22061
            ],
            [
              108.950515,
              34.216065
            ],
            [
              108.942588,
              34.216065
            ],
            [
              108.942588,
              34.22061
            ]
          ]
        ]
      }
    },
    {
      "type": "Feature",
      "properties": {
        "name": "安善",
        "layer": "城坊"
      },
      "geometry": {
        "type": "Polygon",
        "coordinates": [
          [
            [
              108.942588,
              34.225155
            ],
            [
              108.950515,
              34.225155
            ],
            [
              108.950515,
              34.221456
            ],
            [
              108.942588,
              34.221456
            ],
            [
              108.942588,
              34.225155
            ]
          ]
        ]
      }
    },
    {
      "type": "Feature",
      "properties": {
        "name": "靖安",
        "layer": "城坊"
      },
      "geometry": {
        "type": "Polygon",
        "coordinates": [
          [
            [
              108.942588,
              34.230334
            ],
            [
              108.950515,
              34.230334
            ],
            [
              108.950515,
              34.226106
            ],
            [
              108.942588,
              34.226106
            ],
            [
              108.942588,
              34.230334
            ]
          ]
        ]
      }
    },
    {
      "type": "Feature",
      "properties": {
        "name": "永乐",
        "layer": "城坊"
      },
      "geometry": {
        "type": "Polygon",
        "coordinates": [
          [
            [
              108.942588,
              34.235724
            ],
            [
              108.950515,
              34.235724
            ],
            [
              108.950515,
              34.231602
            ],
            [
              108.942588,
              34.231602
            ],
            [
              108.942588,
              34.235724
            ]
          ]
        ]
      }
    },
    {
      "type": "Feature",
      "properties": {
        "name": "长兴",
        "layer": "城坊"
      },
      "geometry": {
        "type": "Polygon",
        "coordinates": [
          [
            [
              108.942588,
              34.241221
            ],
            [
              108.950515,
              34.241221
            ],
            [
              108.950515,
              34.236676
            ],
            [
              108.942588,
              34.236676
            ],
            [
              108.942588,
              34.241221
            ]
          ]
        ]
      }
    },
    {
      "type": "Feature",
      "properties": {
        "name": "崇义",
        "layer": "城坊"
      },
      "geometry": {
        "type": "Polygon",
        "coordinates": [
          [
            [
              108.942588,
              34.2464
            ],
            [
              108.950515,
              34.2464
            ],
            [
              108.950515,
              34.242172
            ],
            [
              108.942588,
              34.242172
            ],
            [
              108.942588,
              34.2464
            ]
          ]
        ]
      }
    },
    {
      "type": "Feature",
      "properties": {
        "name": "务本",
        "layer": "城坊"
      },
      "geometry": {
        "type": "Polygon",
        "coordinates": [
          [
            [
              108.942588,
              34.251579
            ],
            [
              108.950515,
              34.251579
            ],
            [
              108.950515,
              34.247034
            ],
            [
              108.942588,
              34.247034
            ],
            [
              108.942588,
              34.251579
            ]
          ]
        ]
      }
    },
    {
      "type": "Feature",
      "properties": {
        "name": "平康",
        "layer": "城坊"
      },
      "geometry": {
        "type": "Polygon",
        "coordinates": [
          [
            [
              108.951766,
              34.251579
            ],
            [
              108.96317,
              34.251579
            ],
            [
              108.96317,
              34.247034
            ],
            [
              108.951766,
              34.247034
            ],
            [
              108.951766,
              34.251579
            ]
          ]
        ]
      }
    },
    {
      "type": "Feature",
      "properties": {
        "name": "宣阳",
        "layer": "城坊"
      },
      "geometry": {
        "type": "Polygon",
        "coordinates": [
          [
            [
              108.951766,
              34.2464
            ],
            [
              108.96317,
              34.2464
            ],
            [
              108.96317,
              34.242172
            ],
            [
              108.951766,
              34.242172
            ],
            [
              108.951766,
              34.2464
            ]
          ]
        ]
      }
    },
    {
      "type": "Feature",
      "properties": {
        "name": "亲仁",
        "layer": "城坊"
      },
      "geometry": {
        "type": "Polygon",
        "coordinates": [
          [
            [
              108.951766,
              34.241221
            ],
            [
              108.96317,
              34.241221
            ],
            [
              108.96317,
              34.236676
            ],
            [
              108.951766,
              34.236676
            ],
            [
              108.951766,
              34.241221
            ]
          ]
        ]
      }
    },
    {
      "type": "Feature",
      "properties": {
        "name": "永宁",
        "layer": "城坊"
      },
      "geometry": {
        "type": "Polygon",
        "coordinates": [
          [
            [
              108.951766,
              34.235724
            ],
            [
              108.96317,
              34.235724
            ],
            [
              108.96317,
              34.231602
            ],
            [
              108.951766,
              34.231602
            ],
            [
              108.951766,
              34.235724
            ]
          ]
        ]
      }
    },
    {
      "type": "Feature",
      "properties": {
        "name": "永崇",
        "layer": "城坊"
      },
      "geometry": {
        "type": "Polygon",
        "coordinates": [
          [
            [
              108.951766,
              34.230334
            ],
            [
              108.96317,
              34.230334
            ],
            [
              108.96317,
              34.226106
            ],
            [
              108.951766,
              34.226106
            ],
            [
              108.951766,
              34.230334
            ]
          ]
        ]
      }
    },
    {
      "type": "Feature",
      "properties": {
        "name": "昭国",
        "layer": "城坊"
      },
      "geometry": {
        "type": "Polygon",
        "coordinates": [
          [
            [
              108.951766,
              34.225155
            ],
            [
              108.96317,
              34.225155
            ],
            [
              108.96317,
              34.221456
            ],
            [
              108.951766,
              34.221456
            ],
            [
              108.951766,
              34.225155
            ]
          ]
        ]
      }
    },
    {
      "type": "Feature",
      "properties": {
        "name": "昌",
        "layer": "城坊"
      },
      "geometry": {
        "type": "Polygon",
        "coordinates": [
          [
            [
              108.951766,
              34.22061
            ],
            [
              108.96317,
              34.22061
            ],
            [
              108.96317,
              34.216065
            ],
            [
              108.951766,
              34.216065
            ],
            [
              108.951766,
              34.22061
            ]
          ]
        ]
      }
    },
    {
      "type": "Feature",
      "properties": {
        "name": "通善",
        "layer": "城坊"
      },
      "geometry": {
        "type": "Polygon",
        "coordinates": [
          [
            [
              108.951766,
              34.215114
            ],
            [
              108.96317,
              34.215114
            ],
            [
              108.96317,
              34.211415
            ],
            [
              108.951766,
              34.211415
            ],
            [
              108.951766,
              34.215114
            ]
          ]
        ]
      }
    },
    {
      "type": "Feature",
      "properties": {
        "name": "通济",
        "layer": "城坊"
      },
      "geometry": {
        "type": "Polygon",
        "coordinates": [
          [
            [
              108.951766,
              34.210463
            ],
            [
              108.96317,
              34.210463
            ],
            [
              108.96317,
              34.205813
            ],
            [
              108.951766,
              34.205813
            ],
            [
              108.951766,
              34.210463
            ]
          ]
        ]
      }
    },
    {
      "type": "Feature",
      "properties": {
        "name": "曲池",
        "layer": "城坊"
      },
      "geometry": {
        "type": "Polygon",
        "coordinates": [
          [
            [
              108.964978,
              34.210463
            ],
            [
              108.973183,
              34.210463
            ],
            [
              108.973183,
              34.205813
            ],
            [
              108.964978,
              34.205813
            ],
            [
              108.964978,
              34.210463
            ]
          ]
        ]
      }
    },
    {
      "type": "Feature",
      "properties": {
        "name": "青龙",
        "layer": "城坊"
      },
      "geometry": {
        "type": "Polygon",
        "coordinates": [
          [
            [
              108.964978,
              34.215114
            ],
            [
              108.976382,
              34.215114
            ],
            [
              108.976382,
              34.211415
            ],
            [
              108.964978,
              34.211415
            ],
            [
              108.964978,
              34.215114
            ]
          ]
        ]
      }
    },
    {
      "type": "Feature",
      "properties": {
        "name": "未知",
        "layer": "城坊"
      },
      "geometry": {
        "type": "Polygon",
        "coordinates": [
          [
            [
              108.977912,
              34.215114
            ],
            [
              108.990289,
              34.215114
            ],
            [
              108.990289,
              34.211415
            ],
            [
              108.977912,
              34.211415
            ],
            [
              108.977912,
              34.215114
            ]
          ]
        ]
      }
    },
    {
      "type": "Feature",
      "properties": {
        "name": "修政",
        "layer": "城坊"
      },
      "geometry": {
        "type": "Polygon",
        "coordinates": [
          [
            [
              108.964978,
              34.22061
            ],
            [
              108.976382,
              34.22061
            ],
            [
              108.976382,
              34.216065
            ],
            [
              108.964978,
              34.216065
            ],
            [
              108.964978,
              34.22061
            ]
          ]
        ]
      }
    },
    {
      "type": "Feature",
      "properties": {
        "name": "修行",
        "layer": "城坊"
      },
      "geometry": {
        "type": "Polygon",
        "coordinates": [
          [
            [
              108.964978,
              34.225155
            ],
            [
              108.976382,
              34.225155
            ],
            [
              108.976382,
              34.221456
            ],
            [
              108.964978,
              34.221456
            ],
            [
              108.964978,
              34.225155
            ]
          ]
        ]
      }
    },
    {
      "type": "Feature",
      "properties": {
        "name": "升平",
        "layer": "城坊"
      },
      "geometry": {
        "type": "Polygon",
        "coordinates": [
          [
            [
              108.964978,
              34.230334
            ],
            [
              108.976382,
              34.230334
            ],
            [
              108.976382,
              34.226106
            ],
            [
              108.964978,
              34.226106
            ],
            [
              108.964978,
              34.230334
            ]
          ]
        ]
      }
    },
    {
      "type": "Feature",
      "properties": {
        "name": "宣平",
        "layer": "城坊"
      },
      "geometry": {
        "type": "Polygon",
        "coordinates": [
          [
            [
              108.964978,
              34.235724
            ],
            [
              108.976382,
              34.235724
            ],
            [
              108.976382,
              34.231602
            ],
            [
              108.964978,
              34.231602
            ],
            [
              108.964978,
              34.235724
            ]
          ]
        ]
      }
    },
    {
      "type": "Feature",
      "properties": {
        "name": "安邑",
        "layer": "城坊"
      },
      "geometry": {
        "type": "Polygon",
        "coordinates": [
          [
            [
              108.964978,
              34.241221
            ],
            [
              108.976382,
              34.241221
            ],
            [
              108.976382,
              34.236676
            ],
            [
              108.964978,
              34.236676
            ],
            [
              108.964978,
              34.241221
            ]
          ]
        ]
      }
    },
    {
      "type": "Feature",
      "properties": {
        "name": "东市",
        "layer": "城坊"
      },
      "geometry": {
        "type": "Polygon",
        "coordinates": [
          [
            [
              108.964978,
              34.251579
            ],
            [
              108.976382,
              34.251579
            ],
            [
              108.976382,
              34.242172
            ],
            [
              108.964978,
              34.242172
            ],
            [
              108.964978,
              34.251579
            ]
          ]
        ]
      }
    },
    {
      "type": "Feature",
      "properties": {
        "name": "崇仁",
        "layer": "城坊"
      },
      "geometry": {
        "type": "Polygon",
        "coordinates": [
          [
            [
              108.951766,
              34.259929
            ],
            [
              108.96317,
              34.259929
            ],
            [
              108.96317,
              34.252847
            ],
            [
              108.951766,
              34.252847
            ],
            [
              108.951766,
              34.259929
            ]
          ]
        ]
      }
    },
    {
      "type": "Feature",
      "properties": {
        "name": "永兴",
        "layer": "城坊"
      },
      "geometry": {
        "type": "Polygon",
        "coordinates": [
          [
            [
              108.951766,
              34.268596
            ],
            [
              108.96317,
              34.268596
            ],
            [
              108.96317,
              34.26088
            ],
            [
              108.951766,
              34.26088
            ],
            [
              108.951766,
              34.268596
            ]
          ]
        ]
      }
    },
    {
      "type": "Feature",
      "properties": {
        "name": "光宅",
        "layer": "城坊"
      },
      "geometry": {
        "type": "Polygon",
        "coordinates": [
          [
            [
              108.951766,
              34.281491
            ],
            [
              108.95872,
              34.281491
            ],
            [
              108.95872,
              34.2761
            ],
            [
              108.951766,
              34.2761
            ],
            [
              108.951766,
              34.281491
            ]
          ]
        ]
      }
    },
    {
      "type": "Feature",
      "properties": {
        "name": "永昌",
        "layer": "城坊"
      },
      "geometry": {
        "type": "Polygon",
        "coordinates": [
          [
            [
              108.951766,
              34.275149
            ],
            [
              108.95872,
              34.275149
            ],
            [
              108.95872,
              34.269864
            ],
            [
              108.951766,
              34.269864
            ],
            [
              108.951766,
              34.275149
            ]
          ]
        ]
      }
    },
    {
      "type": "Feature",
      "properties": {
        "name": "来庭",
        "layer": "城坊"
      },
      "geometry": {
        "type": "Polygon",
        "coordinates": [
          [
            [
              108.960528,
              34.275149
            ],
            [
              108.96317,
              34.275149
            ],
            [
              108.96317,
              34.269864
            ],
            [
              108.960528,
              34.269864
            ],
            [
              108.960528,
              34.275149
            ]
          ]
        ]
      }
    },
    {
      "type": "Feature",
      "properties": {
        "name": "翊善",
        "layer": "城坊"
      },
      "geometry": {
        "type": "Polygon",
        "coordinates": [
          [
            [
              108.960528,
              34.281491
            ],
            [
              108.96317,
              34.281491
            ],
            [
              108.96317,
              34.2761
            ],
            [
              108.960528,
              34.2761
            ],
            [
              108.960528,
              34.281491
            ]
          ]
        ]
      }
    },
    {
      "type": "Feature",
      "properties": {
        "name": "长乐",
        "layer": "城坊"
      },
      "geometry": {
        "type": "Polygon",
        "coordinates": [
          [
            [
              108.964978,
              34.281491
            ],
            [
              108.976382,
              34.281491
            ],
            [
              108.976382,
              34.2761
            ],
            [
              108.964978,
              34.2761
            ],
            [
              108.964978,
              34.281491
            ]
          ]
        ]
      }
    },
    {
      "type": "Feature",
      "properties": {
        "name": "大宁",
        "layer": "城坊"
      },
      "geometry": {
        "type": "Polygon",
        "coordinates": [
          [
            [
              108.964978,
              34.275149
            ],
            [
              108.976382,
              34.275149
            ],
            [
              108.976382,
              34.269864
            ],
            [
              108.964978,
              34.269864
            ],
            [
              108.964978,
              34.275149
            ]
          ]
        ]
      }
    },
    {
      "type": "Feature",
      "properties": {
        "name": "兴宁",
        "layer": "城坊"
      },
      "geometry": {
        "type": "Polygon",
        "coordinates": [
          [
            [
              108.977912,
              34.275149
            ],
            [
              108.990289,
              34.275149
            ],
            [
              108.990289,
              34.269864
            ],
            [
              108.977912,
              34.269864
            ],
            [
              108.977912,
              34.275149
            ]
          ]
        ]
      }
    },
    {
      "type": "Feature",
      "properties": {
        "name": "入苑",
        "layer": "城坊"
      },
      "geometry": {
        "type": "Polygon",
        "coordinates": [
          [
            [
              108.977912,
              34.281491
            ],
            [
              108.990289,
              34.281491
            ],
            [
              108.990289,
              34.2761
            ],
            [
              108.977912,
              34.2761
            ],
            [
              108.977912,
              34.281491
            ]
          ]
        ]
      }
    },
    {
      "type": "Feature",
      "properties": {
        "name": "安兴",
        "layer": "城坊"
      },
      "geometry": {
        "type": "Polygon",
        "coordinates": [
          [
            [
              108.964978,
              34.268596
            ],
            [
              108.976382,
              34.268596
            ],
            [
              108.976382,
              34.26088
            ],
            [
              108.964978,
              34.26088
            ],
            [
              108.964978,
              34.268596
            ]
          ]
        ]
      }
    },
    {
      "type": "Feature",
      "properties": {
        "name": "永嘉",
        "layer": "城坊"
      },
      "geometry": {
        "type": "Polygon",
        "coordinates": [
          [
            [
              108.977912,
              34.268596
            ],
            [
              108.990289,
              34.268596
            ],
            [
              108.990289,
              34.263205
            ],
            [
              108.977912,
              34.263205
            ],
            [
              108.977912,
              34.268596
            ]
          ]
        ]
      }
    },
    {
      "type": "Feature",
      "properties": {
        "name": "胜业",
        "layer": "城坊"
      },
      "geometry": {
        "type": "Polygon",
        "coordinates": [
          [
            [
              108.964978,
              34.259929
            ],
            [
              108.976382,
              34.259929
            ],
            [
              108.976382,
              34.252847
            ],
            [
              108.964978,
              34.252847
            ],
            [
              108.964978,
              34.259929
            ]
          ]
        ]
      }
    },
    {
      "type": "Feature",
      "properties": {
        "name": "兴庆宫",
        "layer": "城坊"
      },
      "geometry": {
        "type": "Polygon",
        "coordinates": [
          [
            [
              108.977912,
              34.262254
            ],
            [
              108.990289,
              34.262254
            ],
            [
              108.990289,
              34.252847
            ],
            [
              108.977912,
              34.252847
            ],
            [
              108.977912,
              34.262254
            ]
          ]
        ]
      }
    },
    {
      "type": "Feature",
      "properties": {
        "name": "芙蓉园",
        "layer": "城坊"
      },
      "geometry": {
        "type": "Polygon",
        "coordinates": [
          [
            [
              108.974991,
              34.205073
            ],
            [
              108.974991,
              34.210463
            ],
            [
              108.990289,
              34.210463
            ],
            [
              108.990289,
              34.200316
            ],
            [
              108.984239,
              34.200316
            ],
            [
              108.984239,
              34.193764
            ],
            [
              108.971793,
              34.193764
            ],
            [
              108.971793,
              34.205073
            ],
            [
              108.974991,
              34.205073
            ]
          ]
        ]
      }
    },
    {
      "type": "Feature",
      "properties": {
        "name": "道政",
        "layer": "城坊"
      },
      "geometry": {
        "type": "Polygon",
        "coordinates": [
          [
            [
              108.977912,
              34.251579
            ],
            [
              108.990289,
              34.251579
            ],
            [
              108.990289,
              34.247034
            ],
            [
              108.977912,
              34.247034
            ],
            [
              108.977912,
              34.251579
            ]
          ]
        ]
      }
    },
    {
      "type": "Feature",
      "properties": {
        "name": "常乐",
        "layer": "城坊"
      },
      "geometry": {
        "type": "Polygon",
        "coordinates": [
          [
            [
              108.977912,
              34.246083
            ],
            [
              108.990289,
              34.246083
            ],
            [
              108.990289,
              34.242172
            ],
            [
              108.977912,
              34.242172
            ],
            [
              108.977912,
              34.246083
            ]
          ]
        ]
      }
    },
    {
      "type": "Feature",
      "properties": {
        "name": "靖恭",
        "layer": "城坊"
      },
      "geometry": {
        "type": "Polygon",
        "coordinates": [
          [
            [
              108.977912,
              34.241221
            ],
            [
              108.990289,
              34.241221
            ],
            [
              108.990289,
              34.236676
            ],
            [
              108.977912,
              34.236676
            ],
            [
              108.977912,
              34.241221
            ]
          ]
        ]
      }
    },
    {
      "type": "Feature",
      "properties": {
        "name": "新昌",
        "layer": "城坊"
      },
      "geometry": {
        "type": "Polygon",
        "coordinates": [
          [
            [
              108.977912,
              34.235724
            ],
            [
              108.990289,
              34.235724
            ],
            [
              108.990289,
              34.231602
            ],
            [
              108.977912,
              34.231602
            ],
            [
              108.977912,
              34.235724
            ]
          ]
        ]
      }
    },
    {
      "type": "Feature",
      "properties": {
        "name": "升道",
        "layer": "城坊"
      },
      "geometry": {
        "type": "Polygon",
        "coordinates": [
          [
            [
              108.977912,
              34.230334
            ],
            [
              108.990289,
              34.230334
            ],
            [
              108.990289,
              34.226106
            ],
            [
              108.977912,
              34.226106
            ],
            [
              108.977912,
              34.230334
            ]
          ]
        ]
      }
    },
    {
      "type": "Feature",
      "properties": {
        "name": "立政",
        "layer": "城坊"
      },
      "geometry": {
        "type": "Polygon",
        "coordinates": [
          [
            [
              108.977912,
              34.225155
            ],
            [
              108.990289,
              34.225155
            ],
            [
              108.990289,
              34.221456
            ],
            [
              108.977912,
              34.221456
            ],
            [
              108.977912,
              34.225155
            ]
          ]
        ]
      }
    },
    {
      "type": "Feature",
      "properties": {
        "name": "敦化",
        "layer": "城坊"
      },
      "geometry": {
        "type": "Polygon",
        "coordinates": [
          [
            [
              108.977912,
              34.22061
            ],
            [
              108.990289,
              34.22061
            ],
            [
              108.990289,
              34.216065
            ],
            [
              108.977912,
              34.216065
            ],
            [
              108.977912,
              34.22061
            ]
          ]
        ]
      }
    },
    {
      "type": "Feature",
      "properties": {
        "name": "昭行",
        "layer": "城坊"
      },
      "geometry": {
        "type": "Polygon",
        "coordinates": [
          [
            [
              108.903231,
              34.210463
            ],
            [
              108.891827,
              34.210463
            ],
            [
              108.891827,
              34.205813
            ],
            [
              108.903231,
              34.205813
            ],
            [
              108.903231,
              34.210463
            ]
          ]
        ]
      }
    },
    {
      "type": "Feature",
      "properties": {
        "name": "敦義",
        "layer": "城坊"
      },
      "geometry": {
        "type": "Polygon",
        "coordinates": [
          [
            [
              108.915747,
              34.22061
            ],
            [
              108.904482,
              34.22061
            ],
            [
              108.904482,
              34.216065
            ],
            [
              108.915747,
              34.216065
            ],
            [
              108.915747,
              34.22061
            ]
          ]
        ]
      }
    },
    {
      "type": "Feature",
      "properties": {
        "name": "永和",
        "layer": "城坊"
      },
      "geometry": {
        "type": "Polygon",
        "coordinates": [
          [
            [
              108.88988,
              34.225155
            ],
            [
              108.878476,
              34.225155
            ],
            [
              108.878476,
              34.221456
            ],
            [
              108.88988,
              34.221456
            ],
            [
              108.88988,
              34.225155
            ]
          ]
        ]
      }
    },
    {
      "type": "Feature",
      "properties": {
        "name": "永平",
        "layer": "城坊"
      },
      "geometry": {
        "type": "Polygon",
        "coordinates": [
          [
            [
              108.903231,
              34.225155
            ],
            [
              108.891827,
              34.225155
            ],
            [
              108.891827,
              34.221456
            ],
            [
              108.903231,
              34.221456
            ],
            [
              108.903231,
              34.225155
            ]
          ]
        ]
      }
    },
    {
      "type": "Feature",
      "properties": {
        "name": "永安",
        "layer": "城坊"
      },
      "geometry": {
        "type": "Polygon",
        "coordinates": [
          [
            [
              108.915747,
              34.225155
            ],
            [
              108.904482,
              34.225155
            ],
            [
              108.904482,
              34.221456
            ],
            [
              108.915747,
              34.221456
            ],
            [
              108.915747,
              34.225155
            ]
          ]
        ]
      }
    },
    {
      "type": "Feature",
      "properties": {
        "name": "常安",
        "layer": "城坊"
      },
      "geometry": {
        "type": "Polygon",
        "coordinates": [
          [
            [
              108.88988,
              34.22061
            ],
            [
              108.878476,
              34.22061
            ],
            [
              108.878476,
              34.216065
            ],
            [
              108.88988,
              34.216065
            ],
            [
              108.88988,
              34.22061
            ]
          ]
        ]
      }
    },
    {
      "type": "Feature",
      "properties": {
        "name": "通轨",
        "layer": "城坊"
      },
      "geometry": {
        "type": "Polygon",
        "coordinates": [
          [
            [
              108.903231,
              34.22061
            ],
            [
              108.891827,
              34.22061
            ],
            [
              108.891827,
              34.216065
            ],
            [
              108.903231,
              34.216065
            ],
            [
              108.903231,
              34.22061
            ]
          ]
        ]
      }
    },
    {
      "type": "Feature",
      "properties": {
        "name": "金城",
        "layer": "城坊"
      },
      "geometry": {
        "type": "Polygon",
        "coordinates": [
          [
            [
              108.903231,
              34.268596
            ],
            [
              108.891827,
              34.268596
            ],
            [
              108.891827,
              34.26088
            ],
            [
              108.903231,
              34.26088
            ],
            [
              108.903231,
              34.268596
            ]
          ]
        ]
      }
    },
    {
      "type": "Feature",
      "properties": {
        "name": "Group 144",
        "layer": "城坊"
      },
      "geometry": {
        "type": "Polygon",
        "coordinates": [
          [
            [
              108.918807,
              34.264896
            ],
            [
              108.925204,
              34.264896
            ],
            [
              108.925204,
              34.260774
            ],
            [
              108.918807,
              34.260774
            ],
            [
              108.918807,
              34.264896
            ]
          ]
        ]
      }
    },
    {
      "type": "Feature",
      "properties": {
        "name": "Group 143",
        "layer": "城坊"
      },
      "geometry": {
        "type": "Polygon",
        "coordinates": [
          [
            [
              108.926734,
              34.265002
            ],
            [
              108.933131,
              34.265002
            ],
            [
              108.933131,
              34.26088
            ],
            [
              108.926734,
              34.26088
            ],
            [
              108.926734,
              34.265002
            ]
          ]
        ]
      }
    },
    {
      "type": "Feature",
      "properties": {
        "name": "Group 142",
        "layer": "城坊"
      },
      "geometry": {
        "type": "Polygon",
        "coordinates": [
          [
            [
              108.934522,
              34.264896
            ],
            [
              108.941336,
              34.264896
            ],
            [
              108.941336,
              34.26088
            ],
            [
              108.934522,
              34.26088
            ],
            [
              108.934522,
              34.264896
            ]
          ]
        ]
      }
    },
    {
      "type": "Feature",
      "properties": {
        "name": "Group 141",
        "layer": "城坊"
      },
      "geometry": {
        "type": "Polygon",
        "coordinates": [
          [
            [
              108.942588,
              34.264896
            ],
            [
              108.948985,
              34.264896
            ],
            [
              108.948985,
              34.26088
            ],
            [
              108.942588,
              34.26088
            ],
            [
              108.942588,
              34.264896
            ]
          ]
        ]
      }
    },
    {
      "type": "Feature",
      "properties": {
        "name": "Group 140",
        "layer": "城坊"
      },
      "geometry": {
        "type": "Polygon",
        "coordinates": [
          [
            [
              108.942588,
              34.259929
            ],
            [
              108.948985,
              34.259929
            ],
            [
              108.948985,
              34.253481
            ],
            [
              108.942588,
              34.253481
            ],
            [
              108.942588,
              34.259929
            ]
          ]
        ]
      }
    },
    {
      "type": "Feature",
      "properties": {
        "name": "Group 139",
        "layer": "城坊"
      },
      "geometry": {
        "type": "Polygon",
        "coordinates": [
          [
            [
              108.934522,
              34.259929
            ],
            [
              108.941336,
              34.259929
            ],
            [
              108.941336,
              34.253481
            ],
            [
              108.934522,
              34.253481
            ],
            [
              108.934522,
              34.259929
            ]
          ]
        ]
      }
    },
    {
      "type": "Feature",
      "properties": {
        "name": "Group 138",
        "layer": "城坊"
      },
      "geometry": {
        "type": "Polygon",
        "coordinates": [
          [
            [
              108.926734,
              34.259929
            ],
            [
              108.933131,
              34.259929
            ],
            [
              108.933131,
              34.253481
            ],
            [
              108.926734,
              34.253481
            ],
            [
              108.926734,
              34.259929
            ]
          ]
        ]
      }
    },
    {
      "type": "Feature",
      "properties": {
        "name": "Group 137",
        "layer": "城坊"
      },
      "geometry": {
        "type": "Polygon",
        "coordinates": [
          [
            [
              108.918807,
              34.259929
            ],
            [
              108.925204,
              34.259929
            ],
            [
              108.925204,
              34.253481
            ],
            [
              108.918807,
              34.253481
            ],
            [
              108.918807,
              34.259929
            ]
          ]
        ]
      }
    }
  ]
}